{
"type": "FeatureCollection",
"crs": { "type": "name", "properties": { "name": "urn:ogc:def:crs:OGC:1.3:CRS84" } },
                                                                                
"features": [
{ "type": "Feature", "properties": { "POI_TYPE": "Primary", "POI_NAME": "Ahmad Ibrahim Primary", "POI_ADD": "10 Yishun Street 11 S768643", "POSTCODE": "768643", "REMARK": null, "XI": 27933.167, "YI": 46216.879 }, "geometry": { "type": "Point", "coordinates": [ 103.832718020460462, 1.434243524914683 ] } },
{ "type": "Feature", "properties": { "POI_TYPE": "Primary", "POI_NAME": "Aitong", "POI_ADD": "100Bright Hill Drive S579646", "POSTCODE": "579646", "REMARK": null, "XI": 27910.478, "YI": 38079.93 }, "geometry": { "type": "Point", "coordinates": [ 103.832514163753146, 1.360655881330939 ] } },
{ "type": "Feature", "properties": { "POI_TYPE": "Primary", "POI_NAME": "Anderson Primary", "POI_ADD": "19 Ang Mo Kio Avenue 9 S569785", "POSTCODE": "569785", "REMARK": null, "XI": 28885.792, "YI": 40688.53 }, "geometry": { "type": "Point", "coordinates": [ 103.841278090901525, 1.384247114353607 ] } },
{ "type": "Feature", "properties": { "POI_TYPE": "Primary", "POI_NAME": "Ang Mo Kio Primary", "POI_ADD": "2 Ang Mo Kio Avenue 3 Street 21 S569384", "POSTCODE": "569384", "REMARK": null, "XI": 28182.858, "YI": 38951.394 }, "geometry": { "type": "Point", "coordinates": [ 103.834961685728814, 1.368537090451484 ] } },
{ "type": "Feature", "properties": { "POI_TYPE": "Primary", "POI_NAME": "Anglo-Chinese (Junior)", "POI_ADD": "25 Peck Hay Road S228315", "POSTCODE": "228315", "REMARK": null, "XI": 28471.495, "YI": 32441.405 }, "geometry": { "type": "Point", "coordinates": [ 103.8375551901417, 1.309663056877225 ] } },
{ "type": "Feature", "properties": { "POI_TYPE": "Primary", "POI_NAME": "Anglo-Chinese (Primary)", "POI_ADD": "50 Barker Road S309919", "POSTCODE": "309919", "REMARK": null, "XI": 28298.125, "YI": 33547.087 }, "geometry": { "type": "Point", "coordinates": [ 103.835997387308836, 1.319662456685908 ] } },
{ "type": "Feature", "properties": { "POI_TYPE": "Primary", "POI_NAME": "Balestier Hill Primary", "POI_ADD": "565 Balestier Road S329927", "POSTCODE": "329927", "REMARK": null, "XI": 29258.552, "YI": 34256.88 }, "geometry": { "type": "Point", "coordinates": [ 103.844627352440227, 1.326081549081509 ] } },
{ "type": "Feature", "properties": { "POI_TYPE": "Primary", "POI_NAME": "Bedok Green Primary", "POI_ADD": "1 Bedok South Avenue 2 S469317", "POSTCODE": "469317", "REMARK": null, "XI": 39608.027, "YI": 34046.319 }, "geometry": { "type": "Point", "coordinates": [ 103.937622870211428, 1.324175128257051 ] } },
{ "type": "Feature", "properties": { "POI_TYPE": "Primary", "POI_NAME": "Bedok West Primary", "POI_ADD": "3650 Bedok Resevoir Road S479225", "POSTCODE": "479225", "REMARK": null, "XI": 37633.255, "YI": 35339.599 }, "geometry": { "type": "Point", "coordinates": [ 103.919878916814184, 1.335871768426036 ] } },
{ "type": "Feature", "properties": { "POI_TYPE": "Primary", "POI_NAME": "Bendemeer Primary", "POI_ADD": "1062 Serangoon Road S328174", "POSTCODE": "328174", "REMARK": null, "XI": 31532.697, "YI": 33728.588 }, "geometry": { "type": "Point", "coordinates": [ 103.8650617184352, 1.321303685127948 ] } },
{ "type": "Feature", "properties": { "POI_TYPE": "Primary", "POI_NAME": "Blangah Rise Primary", "POI_ADD": "91 Telok Blangah Heights S109100", "POSTCODE": "109100", "REMARK": null, "XI": 25292.147, "YI": 28808.182 }, "geometry": { "type": "Point", "coordinates": [ 103.808987522034855, 1.276805352680002 ] } },
{ "type": "Feature", "properties": { "POI_TYPE": "Primary", "POI_NAME": "Boon Lay Garden Primary", "POI_ADD": "20 Boon Lay Drive S649930", "POSTCODE": "649930", "REMARK": null, "XI": 14623.741, "YI": 36213.414 }, "geometry": { "type": "Point", "coordinates": [ 103.713124854690633, 1.343772798570249 ] } },
{ "type": "Feature", "properties": { "POI_TYPE": "Primary", "POI_NAME": "Bukit Panjang Primary", "POI_ADD": "109 Cashew Road S679676", "POSTCODE": "679676", "REMARK": null, "XI": 20819.037, "YI": 39456.213 }, "geometry": { "type": "Point", "coordinates": [ 103.768792499633904, 1.373101617031177 ] } },
{ "type": "Feature", "properties": { "POI_TYPE": "Primary", "POI_NAME": "Bukit Timah Primary", "POI_ADD": "111 Lorong Kismis S598112", "POSTCODE": "598112", "REMARK": null, "XI": 20551.248, "YI": 35471.309 }, "geometry": { "type": "Point", "coordinates": [ 103.766387214782327, 1.337063522134818 ] } },
{ "type": "Feature", "properties": { "POI_TYPE": "Primary", "POI_NAME": "Bukit View Primary", "POI_ADD": "18 Bukit Batok Street 21 S659634", "POSTCODE": "659634", "REMARK": null, "XI": 19042.313, "YI": 36446.163 }, "geometry": { "type": "Point", "coordinates": [ 103.752828277249819, 1.345879337143936 ] } },
{ "type": "Feature", "properties": { "POI_TYPE": "Primary", "POI_NAME": "Canberra Primary", "POI_ADD": "21 Admiralty Drive S757714", "POSTCODE": "757714", "REMARK": null, "XI": 26050.08, "YI": 48034.07 }, "geometry": { "type": "Point", "coordinates": [ 103.815796570763169, 1.450677472788537 ] } },
{ "type": "Feature", "properties": { "POI_TYPE": "Primary", "POI_NAME": "Canossa Convent Primary", "POI_ADD": "1 Sallim Road S387621", "POSTCODE": "387621", "REMARK": null, "XI": 33519.78, "YI": 34279.911 }, "geometry": { "type": "Point", "coordinates": [ 103.882916798965212, 1.326289359421225 ] } },
{ "type": "Feature", "properties": { "POI_TYPE": "Primary", "POI_NAME": "Casuarina Primary", "POI_ADD": "30 Pasir Ris Street 41 S518935", "POSTCODE": "518935", "REMARK": null, "XI": 41855.119, "YI": 39374.298 }, "geometry": { "type": "Point", "coordinates": [ 103.957816603949723, 1.372358424131959 ] } },
{ "type": "Feature", "properties": { "POI_TYPE": "Primary", "POI_NAME": "Catholic High", "POI_ADD": "9Bishan Street 22 S579767", "POSTCODE": "579767", "REMARK": null, "XI": 29175.269, "YI": 37504.362 }, "geometry": { "type": "Point", "coordinates": [ 103.843879135126571, 1.355450626413093 ] } },
{ "type": "Feature", "properties": { "POI_TYPE": "Primary", "POI_NAME": "Cedar Primary", "POI_ADD": "15 Cedar Avenue S349700", "POSTCODE": "349700", "REMARK": null, "XI": 32831.978, "YI": 35304.393 }, "geometry": { "type": "Point", "coordinates": [ 103.876736687847043, 1.335554525888077 ] } },
{ "type": "Feature", "properties": { "POI_TYPE": "Primary", "POI_NAME": "Changkat Primary", "POI_ADD": "21 Simei Street 3 S529887", "POSTCODE": "529887", "REMARK": null, "XI": 41234.118, "YI": 35810.653 }, "geometry": { "type": "Point", "coordinates": [ 103.952234906984643, 1.340130443333669 ] } },
{ "type": "Feature", "properties": { "POI_TYPE": "Primary", "POI_NAME": "Chij (Bukit Timah)", "POI_ADD": "4 Chestnut Drive S679287", "POSTCODE": "679287", "REMARK": null, "XI": 20788.735, "YI": 38703.878 }, "geometry": { "type": "Point", "coordinates": [ 103.768520397442558, 1.366297764933202 ] } },
{ "type": "Feature", "properties": { "POI_TYPE": "Primary", "POI_NAME": "Chij (Katong) Primary", "POI_ADD": "17 Martia Road S424821", "POSTCODE": "424821", "REMARK": null, "XI": 36586.907, "YI": 32118.159 }, "geometry": { "type": "Point", "coordinates": [ 103.910475985494045, 1.306738545619143 ] } },
{ "type": "Feature", "properties": { "POI_TYPE": "Primary", "POI_NAME": "Chij (Kellock)", "POI_ADD": "11 Jalan Kuala S239640", "POSTCODE": "239640", "REMARK": null, "XI": 28288.007, "YI": 30729.325 }, "geometry": { "type": "Point", "coordinates": [ 103.835906445881662, 1.294179610464165 ] } },
{ "type": "Feature", "properties": { "POI_TYPE": "Primary", "POI_NAME": "Chij Our Lady Of Good Counsel", "POI_ADD": "2C Burghley Drive S558979", "POSTCODE": "558979", "REMARK": null, "XI": 31413.138, "YI": 37686.162 }, "geometry": { "type": "Point", "coordinates": [ 103.863987862744338, 1.357094588510166 ] } },
{ "type": "Feature", "properties": { "POI_TYPE": "Primary", "POI_NAME": "Chij Our Lady Of The Nativity", "POI_ADD": "1257 Upper Serangoon Road S534793", "POSTCODE": "534793", "REMARK": null, "XI": 35224.684, "YI": 39445.137 }, "geometry": { "type": "Point", "coordinates": [ 103.898237519488703, 1.373001439811083 ] } },
{ "type": "Feature", "properties": { "POI_TYPE": "Primary", "POI_NAME": "Chij Primary (Toa Payoh)", "POI_ADD": "51 Jalan Rajah S329154", "POSTCODE": "329154", "REMARK": null, "XI": 30163.542, "YI": 34477.584 }, "geometry": { "type": "Point", "coordinates": [ 103.852759194507186, 1.328077467049647 ] } },
{ "type": "Feature", "properties": { "POI_TYPE": "Primary", "POI_NAME": "Chij St.Nicholas Girls'", "POI_ADD": "501Ang Mo Kio Street 13 S569405", "POSTCODE": "569405", "REMARK": null, "XI": 28079.401, "YI": 39434.418 }, "geometry": { "type": "Point", "coordinates": [ 103.834032053553287, 1.372905387427044 ] } },
{ "type": "Feature", "properties": { "POI_TYPE": "Primary", "POI_NAME": "Chongfu Primary", "POI_ADD": "170 Yishun Avenue 6 S768959", "POSTCODE": "768959", "REMARK": null, "XI": 28661.056, "YI": 46674.1 }, "geometry": { "type": "Point", "coordinates": [ 103.839258804692463, 1.438378458336335 ] } },
{ "type": "Feature", "properties": { "POI_TYPE": "Primary", "POI_NAME": "Chongzheng Primary", "POI_ADD": "1 Tampines Street 21 S529392", "POSTCODE": "529392", "REMARK": null, "XI": 41152.577, "YI": 37028.393 }, "geometry": { "type": "Point", "coordinates": [ 103.951502744194286, 1.351143263317137 ] } },
{ "type": "Feature", "properties": { "POI_TYPE": "Primary", "POI_NAME": "Chua Chu Kang Prmary", "POI_ADD": "20 Choa Chu Kang Avenue 2 S689905", "POSTCODE": "689905", "REMARK": null, "XI": 17839.151, "YI": 39935.794 }, "geometry": { "type": "Point", "coordinates": [ 103.742015951183646, 1.377437892249561 ] } },
{ "type": "Feature", "properties": { "POI_TYPE": "Primary", "POI_NAME": "Clementi Primary", "POI_ADD": "8 Clementi Avenue 3 S129903", "POSTCODE": "129903", "REMARK": null, "XI": 20209.271, "YI": 33083.767 }, "geometry": { "type": "Point", "coordinates": [ 103.763314961080624, 1.315471367168449 ] } },
{ "type": "Feature", "properties": { "POI_TYPE": "Primary", "POI_NAME": "Compassvale Primary", "POI_ADD": "21 Compassvale Street S545091", "POSTCODE": "545091", "REMARK": null, "XI": 35165.545, "YI": 41885.784 }, "geometry": { "type": "Point", "coordinates": [ 103.897706708749951, 1.395073777445784 ] } },
{ "type": "Feature", "properties": { "POI_TYPE": "Primary", "POI_NAME": "Concord Primary", "POI_ADD": "3 Choa Chu Kang Avenue 4 S689814", "POSTCODE": "689814", "REMARK": null, "XI": 17261.696, "YI": 40198.456 }, "geometry": { "type": "Point", "coordinates": [ 103.736827006659482, 1.379813104243239 ] } },
{ "type": "Feature", "properties": { "POI_TYPE": "Primary", "POI_NAME": "Corporation Primary", "POI_ADD": "31 Jurong West Street 24 S648374", "POSTCODE": "648374", "REMARK": null, "XI": 13110.967, "YI": 37146.735 }, "geometry": { "type": "Point", "coordinates": [ 103.699531234244645, 1.352212687561564 ] } },
{ "type": "Feature", "properties": { "POI_TYPE": "Primary", "POI_NAME": "Da Qiao Primary", "POI_ADD": "8 Ang Mo Kio Street 54 S569185", "POSTCODE": "569185", "REMARK": null, "XI": 30901.047, "YI": 39351.817 }, "geometry": { "type": "Point", "coordinates": [ 103.859386551616737, 1.372158230843598 ] } },
{ "type": "Feature", "properties": { "POI_TYPE": "Primary", "POI_NAME": "Damai Primary", "POI_ADD": "3652 Bedok Reservoir Cresent S479226", "POSTCODE": "479226", "REMARK": null, "XI": 37719.303, "YI": 35388.365 }, "geometry": { "type": "Point", "coordinates": [ 103.920652122565045, 1.336312762795741 ] } },
{ "type": "Feature", "properties": { "POI_TYPE": "Primary", "POI_NAME": "Dazhong", "POI_ADD": "35 Bukit Batok Street 31 S659441", "POSTCODE": "659441", "REMARK": null, "XI": 18521.526, "YI": 37900.409 }, "geometry": { "type": "Point", "coordinates": [ 103.748148232050198, 1.359030845932448 ] } },
{ "type": "Feature", "properties": { "POI_TYPE": "Primary", "POI_NAME": "De La Salle", "POI_ADD": "11 Choa Chu Kang North Street 52 S689285", "POSTCODE": "689285", "REMARK": null, "XI": 18003.039, "YI": 41813.911 }, "geometry": { "type": "Point", "coordinates": [ 103.743487962917072, 1.394422944667988 ] } },
{ "type": "Feature", "properties": { "POI_TYPE": "Primary", "POI_NAME": "East Coast Primary", "POI_ADD": "8 Chai Chee Lane S469031", "POSTCODE": "469031", "REMARK": null, "XI": 37550.954, "YI": 34581.848 }, "geometry": { "type": "Point", "coordinates": [ 103.919139158431705, 1.329018970714045 ] } },
{ "type": "Feature", "properties": { "POI_TYPE": "Primary", "POI_NAME": "East Spring Primary", "POI_ADD": "31 Tampines Street 33 S529258", "POSTCODE": "529258", "REMARK": null, "XI": 42305.223, "YI": 37269.392 }, "geometry": { "type": "Point", "coordinates": [ 103.961860090304668, 1.353322237844268 ] } },
{ "type": "Feature", "properties": { "POI_TYPE": "Primary", "POI_NAME": "East View Primary", "POI_ADD": "4 Tampines Street 91 S528907", "POSTCODE": "528907", "REMARK": null, "XI": 39766.799, "YI": 36556.579 }, "geometry": { "type": "Point", "coordinates": [ 103.939050489392272, 1.346876929938669 ] } },
{ "type": "Feature", "properties": { "POI_TYPE": "Primary", "POI_NAME": "Edgefield Primary", "POI_ADD": "41 Edgefield Plains S828869", "POSTCODE": "828869", "REMARK": null, "XI": 36291.386, "YI": 42403.52 }, "geometry": { "type": "Point", "coordinates": [ 103.907823429161922, 1.399755691464448 ] } },
{ "type": "Feature", "properties": { "POI_TYPE": "Primary", "POI_NAME": "Elias Park Primary", "POI_ADD": "11 Pasir Ris Street 52 S518866", "POSTCODE": "518866", "REMARK": null, "XI": 40419.981, "YI": 39670.611 }, "geometry": { "type": "Point", "coordinates": [ 103.944921017581322, 1.375038808247485 ] } },
{ "type": "Feature", "properties": { "POI_TYPE": "Primary", "POI_NAME": "Eunos Primary C\/O Jaya Pri", "POI_ADD": "10 Chai Chee Lane S469021", "POSTCODE": "469021", "REMARK": null, "XI": 37681.663, "YI": 34728.081 }, "geometry": { "type": "Point", "coordinates": [ 103.920313696136333, 1.330341407305906 ] } },
{ "type": "Feature", "properties": { "POI_TYPE": "Primary", "POI_NAME": "Evergreen Primary", "POI_ADD": "31 Woodlands Circle S738908", "POSTCODE": "738908", "REMARK": null, "XI": 23623.145, "YI": 47275.895 }, "geometry": { "type": "Point", "coordinates": [ 103.793988220633622, 1.443820539234191 ] } },
{ "type": "Feature", "properties": { "POI_TYPE": "Primary", "POI_NAME": "Fairfield Methodist Primary", "POI_ADD": "100 Dover Road S139648", "POSTCODE": "139648", "REMARK": null, "XI": 22708.592, "YI": 31515.318 }, "geometry": { "type": "Point", "coordinates": [ 103.785772877884881, 1.301287404762987 ] } },
{ "type": "Feature", "properties": { "POI_TYPE": "Primary", "POI_NAME": "Fengshan Primary", "POI_ADD": "307 Bedok Not\\Rth Road S469680", "POSTCODE": "469680", "REMARK": null, "XI": 38918.322, "YI": 34746.522 }, "geometry": { "type": "Point", "coordinates": [ 103.931425760085546, 1.330507761574603 ] } },
{ "type": "Feature", "properties": { "POI_TYPE": "Primary", "POI_NAME": "First Toa Payoh Primary", "POI_ADD": "7 Lorong 8 Toa Payoh S319252", "POSTCODE": "319252", "REMARK": null, "XI": 30480.405, "YI": 35832.935 }, "geometry": { "type": "Point", "coordinates": [ 103.855606493028063, 1.340334755969248 ] } },
{ "type": "Feature", "properties": { "POI_TYPE": "Primary", "POI_NAME": "Fuchun Primary", "POI_ADD": "29 Woodlands Centre Road S738926", "POSTCODE": "738926", "REMARK": null, "XI": 21305.035, "YI": 46336.873 }, "geometry": { "type": "Point", "coordinates": [ 103.773157945670292, 1.435327910663167 ] } },
{ "type": "Feature", "properties": { "POI_TYPE": "Primary", "POI_NAME": "Fuhua Primary C\/O Yuqun Pri", "POI_ADD": "571 Jurong East Street 24 S609560", "POSTCODE": "609560", "REMARK": null, "XI": 18022.934, "YI": 36122.155 }, "geometry": { "type": "Point", "coordinates": [ 103.743668646903743, 1.342948805945411 ] } },
{ "type": "Feature", "properties": { "POI_TYPE": "Primary", "POI_NAME": "Gan Eng Seng Primary", "POI_ADD": "100 Redhill Close S158901", "POSTCODE": "158901", "REMARK": null, "XI": 26036.706, "YI": 29879.828 }, "geometry": { "type": "Point", "coordinates": [ 103.815677592473165, 1.286496997849444 ] } },
{ "type": "Feature", "properties": { "POI_TYPE": "Primary", "POI_NAME": "Geylang Methodist Primary", "POI_ADD": "4 Geylang East Central S389706", "POSTCODE": "389706", "REMARK": null, "XI": 33622.38, "YI": 33327.602 }, "geometry": { "type": "Point", "coordinates": [ 103.883838541406121, 1.317676998139485 ] } },
{ "type": "Feature", "properties": { "POI_TYPE": "Primary", "POI_NAME": "Ghim Moh Primary", "POI_ADD": "287 Ghim Moh Road S279623", "POSTCODE": "279623", "REMARK": null, "XI": 22723.596, "YI": 32707.544 }, "geometry": { "type": "Point", "coordinates": [ 103.785907493391889, 1.312069475338067 ] } },
{ "type": "Feature", "properties": { "POI_TYPE": "Primary", "POI_NAME": "Greenridge Primary", "POI_ADD": "11 Jelapang Road S677744", "POSTCODE": "677744", "REMARK": null, "XI": 20685.898, "YI": 40934.801 }, "geometry": { "type": "Point", "coordinates": [ 103.767595784131856, 1.386473396075569 ] } },
{ "type": "Feature", "properties": { "POI_TYPE": "Primary", "POI_NAME": "Greenwood Primary", "POI_ADD": "11 Woodlands Drive 62 S737942", "POSTCODE": "737942", "REMARK": null, "XI": 24822.452, "YI": 46818.661 }, "geometry": { "type": "Point", "coordinates": [ 103.804765227008986, 1.439685643267953 ] } },
{ "type": "Feature", "properties": { "POI_TYPE": "Primary", "POI_NAME": "Griffths Primary", "POI_ADD": "3 Tampines Street 22 S529366", "POSTCODE": "529366", "REMARK": null, "XI": 41135.564, "YI": 36709.74 }, "geometry": { "type": "Point", "coordinates": [ 103.951349733002687, 1.348261492534655 ] } },
{ "type": "Feature", "properties": { "POI_TYPE": "Primary", "POI_NAME": "Guangyang Primary", "POI_ADD": "6 Bishan Street 12 S579806", "POSTCODE": "579806", "REMARK": null, "XI": 29782.959, "YI": 36445.217 }, "geometry": { "type": "Point", "coordinates": [ 103.849339562163479, 1.345872066009719 ] } },
{ "type": "Feature", "properties": { "POI_TYPE": "Primary", "POI_NAME": "Haig Girl'S School", "POI_ADD": "51 Koon Seng Road S427072", "POSTCODE": "427072", "REMARK": null, "XI": 35800.872, "YI": 32643.692 }, "geometry": { "type": "Point", "coordinates": [ 103.903413226252283, 1.311491485447461 ] } },
{ "type": "Feature", "properties": { "POI_TYPE": "Primary", "POI_NAME": "Henry Park Primary", "POI_ADD": "1 Holland Grove Road S278790", "POSTCODE": "278790", "REMARK": null, "XI": 22549.135, "YI": 33298.684 }, "geometry": { "type": "Point", "coordinates": [ 103.784339771641697, 1.31741550443705 ] } },
{ "type": "Feature", "properties": { "POI_TYPE": "Primary", "POI_NAME": "Holy Innocents' Primary", "POI_ADD": "5 Lorong Low Koon S536451", "POSTCODE": "536451", "REMARK": null, "XI": 34731.728, "YI": 38768.742 }, "geometry": { "type": "Point", "coordinates": [ 103.89380780644214, 1.366884485303797 ] } },
{ "type": "Feature", "properties": { "POI_TYPE": "Primary", "POI_NAME": "Hong Kah Primary", "POI_ADD": "1 Bukit Batok West Avenue 2 S659203", "POSTCODE": "659203", "REMARK": null, "XI": 18014.177, "YI": 38305.809 }, "geometry": { "type": "Point", "coordinates": [ 103.743589234470974, 1.362696968378328 ] } },
{ "type": "Feature", "properties": { "POI_TYPE": "Primary", "POI_NAME": "Hong Wen", "POI_ADD": "508 Victoria Street S198372", "POSTCODE": "198372", "REMARK": null, "XI": 31125.27, "YI": 32007.316 }, "geometry": { "type": "Point", "coordinates": [ 103.861400599331532, 1.305737154898796 ] } },
{ "type": "Feature", "properties": { "POI_TYPE": "Primary", "POI_NAME": "Hougang Primary", "POI_ADD": "1 Hougang Street 93 S534238", "POSTCODE": "534238", "REMARK": null, "XI": 33268.327, "YI": 39909.46 }, "geometry": { "type": "Point", "coordinates": [ 103.880658343419697, 1.377201024766732 ] } },
{ "type": "Feature", "properties": { "POI_TYPE": "Primary", "POI_NAME": "Huamin Primary", "POI_ADD": "21 Yishun Avenue 11 S768857", "POSTCODE": "768857", "REMARK": null, "XI": 29288.642, "YI": 45393.234 }, "geometry": { "type": "Point", "coordinates": [ 103.844898212606154, 1.426794748386651 ] } },
{ "type": "Feature", "properties": { "POI_TYPE": "Primary", "POI_NAME": "Jiemin Primary", "POI_ADD": "2 Yishun Street 71 S768515", "POSTCODE": "768515", "REMARK": null, "XI": 27643.984, "YI": 45537.841 }, "geometry": { "type": "Point", "coordinates": [ 103.830119445257225, 1.428102548794634 ] } },
{ "type": "Feature", "properties": { "POI_TYPE": "Primary", "POI_NAME": "Jin Tai Primary", "POI_ADD": "145 West Coast Road S127367", "POSTCODE": "127367", "REMARK": null, "XI": 20504.964, "YI": 31395.855 }, "geometry": { "type": "Point", "coordinates": [ 103.765972317112684, 1.300206570313968 ] } },
{ "type": "Feature", "properties": { "POI_TYPE": "Primary", "POI_NAME": "Jing Shan C\/O Da Qiao Pri", "POI_ADD": "10 Ang Mo Kio Street 54 S569184", "POSTCODE": "569184", "REMARK": null, "XI": 30808.37, "YI": 39476.925 }, "geometry": { "type": "Point", "coordinates": [ 103.858553794695951, 1.373289671758686 ] } },
{ "type": "Feature", "properties": { "POI_TYPE": "Primary", "POI_NAME": "Junyuan Primary", "POI_ADD": "2 Tampines Street 91 S528906", "POSTCODE": "528906", "REMARK": null, "XI": 39832.919, "YI": 36665.413 }, "geometry": { "type": "Point", "coordinates": [ 103.939644660153107, 1.347861158238439 ] } },
{ "type": "Feature", "properties": { "POI_TYPE": "Primary", "POI_NAME": "Jurong Primary", "POI_ADD": "200 Jurong East Avenue 1 S609789", "POSTCODE": "609789", "REMARK": null, "XI": 16417.514, "YI": 36918.355 }, "geometry": { "type": "Point", "coordinates": [ 103.729242693136953, 1.350148768483775 ] } },
{ "type": "Feature", "properties": { "POI_TYPE": "Primary", "POI_NAME": "Jurong West Primary", "POI_ADD": "30 Jurong East Street 61 S648368", "POSTCODE": "648368", "REMARK": null, "XI": 13025.569, "YI": 35655.586 }, "geometry": { "type": "Point", "coordinates": [ 103.698764619742079, 1.338727260571181 ] } },
{ "type": "Feature", "properties": { "POI_TYPE": "Primary", "POI_NAME": "Juying Primary", "POI_ADD": "31 Jurong East Street 91 S649037", "POSTCODE": "649037", "REMARK": null, "XI": 11780.809, "YI": 35740.04 }, "geometry": { "type": "Point", "coordinates": [ 103.687579706475731, 1.339490386718617 ] } },
{ "type": "Feature", "properties": { "POI_TYPE": "Primary", "POI_NAME": "Keming Primary", "POI_ADD": "90 Bukit Batok East Avenue 6 S659762", "POSTCODE": "659762", "REMARK": null, "XI": 19412.449, "YI": 36290.55 }, "geometry": { "type": "Point", "coordinates": [ 103.756154217958795, 1.344472137932169 ] } },
{ "type": "Feature", "properties": { "POI_TYPE": "Primary", "POI_NAME": "Kheng Cheng C\/O First Toa Payoh Pri.", "POI_ADD": "6 Toa Payoh Rise S318933", "POSTCODE": "318933", "REMARK": null, "XI": 29038.395, "YI": 35707.277 }, "geometry": { "type": "Point", "coordinates": [ 103.842649171505997, 1.339198433715609 ] } },
{ "type": "Feature", "properties": { "POI_TYPE": "Primary", "POI_NAME": "Kong Hwa", "POI_ADD": "350 Guillemard Road S399772", "POSTCODE": "399772", "REMARK": null, "XI": 34066.786, "YI": 32575.774 }, "geometry": { "type": "Point", "coordinates": [ 103.887831608246941, 1.31087764951437 ] } },
{ "type": "Feature", "properties": { "POI_TYPE": "Primary", "POI_NAME": "Kranji Primary", "POI_ADD": "11 Choa Chu Kang Street 54 S689189", "POSTCODE": "689189", "REMARK": null, "XI": 18494.074, "YI": 41799.577 }, "geometry": { "type": "Point", "coordinates": [ 103.74790030276138, 1.394293478558277 ] } },
{ "type": "Feature", "properties": { "POI_TYPE": "Primary", "POI_NAME": "Kuo Chuan Presbyterian Primary", "POI_ADD": "8 Bishan Street 13 S579793", "POSTCODE": "579793", "REMARK": null, "XI": 30467.149, "YI": 36860.83 }, "geometry": { "type": "Point", "coordinates": [ 103.855487463817198, 1.349630673564229 ] } },
{ "type": "Feature", "properties": { "POI_TYPE": "Primary", "POI_NAME": "Lakeside Primary School", "POI_ADD": "161Corporation Walk S618310", "POSTCODE": "618310", "REMARK": null, "XI": 15158.629, "YI": 35632.15 }, "geometry": { "type": "Point", "coordinates": [ 103.717931384297515, 1.338516297269044 ] } },
{ "type": "Feature", "properties": { "POI_TYPE": "Primary", "POI_NAME": "Lianhua Primary", "POI_ADD": "2 Bukit Batok Street 52 S659243", "POSTCODE": "659243", "REMARK": null, "XI": 19185.288, "YI": 37297.895 }, "geometry": { "type": "Point", "coordinates": [ 103.754112745065896, 1.35358213338168 ] } },
{ "type": "Feature", "properties": { "POI_TYPE": "Primary", "POI_NAME": "Loyang Primary", "POI_ADD": "3 Pasir Ris Drive 6 S519419", "POSTCODE": "519419", "REMARK": null, "XI": 41731.401, "YI": 39296.328 }, "geometry": { "type": "Point", "coordinates": [ 103.956704875998923, 1.371653350915163 ] } },
{ "type": "Feature", "properties": { "POI_TYPE": "Primary", "POI_NAME": "Macpherson Primary", "POI_ADD": "2 Mattar Road S387724", "POSTCODE": "387724", "REMARK": null, "XI": 33358.37, "YI": 34013.122 }, "geometry": { "type": "Point", "coordinates": [ 103.881466396266418, 1.323876643761976 ] } },
{ "type": "Feature", "properties": { "POI_TYPE": "Primary", "POI_NAME": "Maha Bodhi", "POI_ADD": "10 Ubi Avenue 1 S408931", "POSTCODE": "408931", "REMARK": null, "XI": 35596.263, "YI": 34518.038 }, "geometry": { "type": "Point", "coordinates": [ 103.901575177370049, 1.328442447259149 ] } },
{ "type": "Feature", "properties": { "POI_TYPE": "Primary", "POI_NAME": "Maris Stella High", "POI_ADD": "25Mount Vernon Road S368051", "POSTCODE": "368051", "REMARK": null, "XI": 32949.243, "YI": 35993.093 }, "geometry": { "type": "Point", "coordinates": [ 103.877790493463422, 1.341782863502119 ] } },
{ "type": "Feature", "properties": { "POI_TYPE": "Primary", "POI_NAME": "Marsiling Primary", "POI_ADD": "31 Marsiling Centre Road S738927", "POSTCODE": "738927", "REMARK": null, "XI": 21367.121, "YI": 46179.308 }, "geometry": { "type": "Point", "coordinates": [ 103.773715884153731, 1.433902965344928 ] } },
{ "type": "Feature", "properties": { "POI_TYPE": "Primary", "POI_NAME": "Mayflower Primary", "POI_ADD": "200 Ang Mo Kio Avenue 5 S569878", "POSTCODE": "569878", "REMARK": null, "XI": 29104.068, "YI": 39851.029 }, "geometry": { "type": "Point", "coordinates": [ 103.843239434760463, 1.376673047767 ] } },
{ "type": "Feature", "properties": { "POI_TYPE": "Primary", "POI_NAME": "Maymount Convent", "POI_ADD": "20 Marymount Road S297754", "POSTCODE": "297754", "REMARK": null, "XI": 28697.589, "YI": 35799.548 }, "geometry": { "type": "Point", "coordinates": [ 103.83958683039377, 1.340032909677983 ] } },
{ "type": "Feature", "properties": { "POI_TYPE": "Primary", "POI_NAME": "Mee Toh", "POI_ADD": "375 Race Course Road S218644", "POSTCODE": "218644", "REMARK": null, "XI": 30643.032, "YI": 33071.699 }, "geometry": { "type": "Point", "coordinates": [ 103.857067555085465, 1.315363103400359 ] } },
{ "type": "Feature", "properties": { "POI_TYPE": "Primary", "POI_NAME": "Meridian Primary", "POI_ADD": "20 Pasir Ris Street 71 S518798", "POSTCODE": "518798", "REMARK": null, "XI": 39371.534, "YI": 39845.457 }, "geometry": { "type": "Point", "coordinates": [ 103.935500046967476, 1.376620474845314 ] } },
{ "type": "Feature", "properties": { "POI_TYPE": "Primary", "POI_NAME": "Methodist Girls' (Primary)", "POI_ADD": "11 Blackmore Drive S599986", "POSTCODE": "599986", "REMARK": null, "XI": 22510.092, "YI": 34895.112 }, "geometry": { "type": "Point", "coordinates": [ 103.783988664831412, 1.331853022158823 ] } },
{ "type": "Feature", "properties": { "POI_TYPE": "Primary", "POI_NAME": "Monfort Junior", "POI_ADD": "52 Hougang Avenue 8 S538786", "POSTCODE": "538786", "REMARK": null, "XI": 34220.383, "YI": 39550.066 }, "geometry": { "type": "Point", "coordinates": [ 103.88921318357103, 1.373950609118752 ] } },
{ "type": "Feature", "properties": { "POI_TYPE": "Primary", "POI_NAME": "Nan Chiau Primary", "POI_ADD": "50 Anchorvale Link S545080", "POSTCODE": "545080", "REMARK": null, "XI": 34354.368, "YI": 41617.822 }, "geometry": { "type": "Point", "coordinates": [ 103.890417581428679, 1.392650615822777 ] } },
{ "type": "Feature", "properties": { "POI_TYPE": "Primary", "POI_NAME": "Nan Hua Primary", "POI_ADD": "30 Jalan Lempeng S128806", "POSTCODE": "128806", "REMARK": null, "XI": 19982.596, "YI": 33524.064 }, "geometry": { "type": "Point", "coordinates": [ 103.761278058880634, 1.319453196189298 ] } },
{ "type": "Feature", "properties": { "POI_TYPE": "Primary", "POI_NAME": "Nanyang Primary", "POI_ADD": "52 King'S Road S268097", "POSTCODE": "268097", "REMARK": null, "XI": 25239.764, "YI": 33656.384 }, "geometry": { "type": "Point", "coordinates": [ 103.8085164138392, 1.320650776888004 ] } },
{ "type": "Feature", "properties": { "POI_TYPE": "Primary", "POI_NAME": "Naval Base Primary", "POI_ADD": "7 Yishun Street Avenue 4 S769028", "POSTCODE": "769028", "REMARK": null, "XI": 28582.842, "YI": 44206.544 }, "geometry": { "type": "Point", "coordinates": [ 103.83855592605957, 1.416062775881579 ] } },
{ "type": "Feature", "properties": { "POI_TYPE": "Primary", "POI_NAME": "New Town Primary", "POI_ADD": "402 Commonwealth Drive S149599", "POSTCODE": "149599", "REMARK": null, "XI": 24098.033, "YI": 31741.461 }, "geometry": { "type": "Point", "coordinates": [ 103.798257605468578, 1.303332767820885 ] } },
{ "type": "Feature", "properties": { "POI_TYPE": "Primary", "POI_NAME": "Ngee Ann Primary", "POI_ADD": "344 Marine Terrace S449149", "POSTCODE": "449149", "REMARK": null, "XI": 37327.513, "YI": 31961.959 }, "geometry": { "type": "Point", "coordinates": [ 103.917130628066815, 1.305325714864772 ] } },
{ "type": "Feature", "properties": { "POI_TYPE": "Primary", "POI_NAME": "North Spring Primary", "POI_ADD": "1 Rivervale Street S545088", "POSTCODE": "545088", "REMARK": null, "XI": 35817.561, "YI": 41120.278 }, "geometry": { "type": "Point", "coordinates": [ 103.90356538431908, 1.388150652441142 ] } },
{ "type": "Feature", "properties": { "POI_TYPE": "Primary", "POI_NAME": "North View Primary", "POI_ADD": "210 Yishun Avenue 6 S768960", "POSTCODE": "768960", "REMARK": null, "XI": 29701.204, "YI": 45498.85 }, "geometry": { "type": "Point", "coordinates": [ 103.84860546803111, 1.427749879511404 ] } },
{ "type": "Feature", "properties": { "POI_TYPE": "Primary", "POI_NAME": "Northland Primary", "POI_ADD": "15 Yishun Avenue 4 S769026", "POSTCODE": "769026", "REMARK": null, "XI": 28845.839, "YI": 44778.335 }, "geometry": { "type": "Point", "coordinates": [ 103.840919202041761, 1.421233840715314 ] } },
{ "type": "Feature", "properties": { "POI_TYPE": "Primary", "POI_NAME": "Opera Estate Primary", "POI_ADD": "48 Fidelio Road S458436", "POSTCODE": "458436", "REMARK": null, "XI": 38148.468, "YI": 33489.722 }, "geometry": { "type": "Point", "coordinates": [ 103.92450778537011, 1.319141988497751 ] } },
{ "type": "Feature", "properties": { "POI_TYPE": "Primary", "POI_NAME": "Pandan Primary", "POI_ADD": "700 West Coast Road S608785", "POSTCODE": "608785", "REMARK": null, "XI": 17997.368, "YI": 33584.774 }, "geometry": { "type": "Point", "coordinates": [ 103.743439752432678, 1.320001651026258 ] } },
{ "type": "Feature", "properties": { "POI_TYPE": "Primary", "POI_NAME": "Park View Primary", "POI_ADD": "60 Pasir Ris Drive 1 S519524", "POSTCODE": "519524", "REMARK": null, "XI": 39829.992, "YI": 39960.894 }, "geometry": { "type": "Point", "coordinates": [ 103.939619665687829, 1.377664262779351 ] } },
{ "type": "Feature", "properties": { "POI_TYPE": "Primary", "POI_NAME": "Pasir Ris Primary", "POI_ADD": "5 Pasir Ris Street 21 S518968", "POSTCODE": "518968", "REMARK": null, "XI": 42376.567, "YI": 39315.396 }, "geometry": { "type": "Point", "coordinates": [ 103.962502145919828, 1.371825486850509 ] } },
{ "type": "Feature", "properties": { "POI_TYPE": "Primary", "POI_NAME": "Paya Lebar Methodist Girls' Primary", "POI_ADD": "298 Lorong Ah Soo S536741", "POSTCODE": "536741", "REMARK": null, "XI": 33750.287, "YI": 36889.457 }, "geometry": { "type": "Point", "coordinates": [ 103.884988522599599, 1.349889115419533 ] } },
{ "type": "Feature", "properties": { "POI_TYPE": "Primary", "POI_NAME": "Pei Chun Public", "POI_ADD": "16 Lorong 7 Toa Payoh S319320", "POSTCODE": "319320", "REMARK": null, "XI": 30497.729, "YI": 35552.333 }, "geometry": { "type": "Point", "coordinates": [ 103.855762136397402, 1.337797089811492 ] } },
{ "type": "Feature", "properties": { "POI_TYPE": "Primary", "POI_NAME": "Pei Hwa Presbyterian Primary", "POI_ADD": "7 Pei Wah Avenue S597610", "POSTCODE": "597610", "REMARK": null, "XI": 21626.921, "YI": 35629.889 }, "geometry": { "type": "Point", "coordinates": [ 103.776052724846167, 1.338497908760361 ] } },
{ "type": "Feature", "properties": { "POI_TYPE": "Primary", "POI_NAME": "Pei Tong Primary", "POI_ADD": "15 Clementi Avenue 5 S129857", "POSTCODE": "129857", "REMARK": null, "XI": 20673.204, "YI": 33125.693 }, "geometry": { "type": "Point", "coordinates": [ 103.767483620551062, 1.315850645060822 ] } },
{ "type": "Feature", "properties": { "POI_TYPE": "Primary", "POI_NAME": "Peixin Primary", "POI_ADD": "500 Yishun Ring Road S768679", "POSTCODE": "768679", "REMARK": null, "XI": 28022.123, "YI": 46196.442 }, "geometry": { "type": "Point", "coordinates": [ 103.833517374544542, 1.43405870016301 ] } },
{ "type": "Feature", "properties": { "POI_TYPE": "Primary", "POI_NAME": "Peiying Primary", "POI_ADD": "651 Yishun Ring Road S768687", "POSTCODE": "768687", "REMARK": null, "XI": 27651.49, "YI": 44349.23 }, "geometry": { "type": "Point", "coordinates": [ 103.830186908175605, 1.417353180362323 ] } },
{ "type": "Feature", "properties": { "POI_TYPE": "Primary", "POI_NAME": "Pioneer Primary", "POI_ADD": "23 Jurong West Street 81 S649076", "POSTCODE": "649076", "REMARK": null, "XI": 12627.961, "YI": 36747.103 }, "geometry": { "type": "Point", "coordinates": [ 103.695191333317766, 1.348598323837335 ] } },
{ "type": "Feature", "properties": { "POI_TYPE": "Primary", "POI_NAME": "Poi Ching", "POI_ADD": "1 Lorong 6 Toa Payoh S319376", "POSTCODE": "319376", "REMARK": null, "XI": 30322.978, "YI": 35569.32 }, "geometry": { "type": "Point", "coordinates": [ 103.854191897721904, 1.337950728141341 ] } },
{ "type": "Feature", "properties": { "POI_TYPE": "Primary", "POI_NAME": "Princess Elizabeth Primary", "POI_ADD": "30 Bukit Batok West Avenue 3 S659163", "POSTCODE": "659163", "REMARK": null, "XI": 17696.173, "YI": 36861.712 }, "geometry": { "type": "Point", "coordinates": [ 103.740732253198402, 1.349636977690862 ] } },
{ "type": "Feature", "properties": { "POI_TYPE": "Primary", "POI_NAME": "Punggol Primary", "POI_ADD": "61 Hougang Avenue 8 S538787", "POSTCODE": "538787", "REMARK": null, "XI": 34859.081, "YI": 39897.065 }, "geometry": { "type": "Point", "coordinates": [ 103.894952421779848, 1.377088600162349 ] } },
{ "type": "Feature", "properties": { "POI_TYPE": "Primary", "POI_NAME": "Qiaonan Primary", "POI_ADD": "15 Tampines Street 11 S529454", "POSTCODE": "529454", "REMARK": null, "XI": 40859.764, "YI": 36498.411 }, "geometry": { "type": "Point", "coordinates": [ 103.948871413074343, 1.346350431699108 ] } },
{ "type": "Feature", "properties": { "POI_TYPE": "Primary", "POI_NAME": "Qifa Primary", "POI_ADD": "50 West Coast Avenue S128104", "POSTCODE": "128104", "REMARK": null, "XI": 19480.495, "YI": 32740.877 }, "geometry": { "type": "Point", "coordinates": [ 103.756766640385493, 1.312370200277724 ] } },
{ "type": "Feature", "properties": { "POI_TYPE": "Primary", "POI_NAME": "Qihua Primary", "POI_ADD": "5 Woodlands Street 81 S738525", "POSTCODE": "738525", "REMARK": null, "XI": 23002.378, "YI": 47088.946 }, "geometry": { "type": "Point", "coordinates": [ 103.788410051317186, 1.442129736806819 ] } },
{ "type": "Feature", "properties": { "POI_TYPE": "Primary", "POI_NAME": "Queenstown Primary", "POI_ADD": "310 Margaret Drive S149303", "POSTCODE": "149303", "REMARK": null, "XI": 25230.09, "YI": 31006.392 }, "geometry": { "type": "Point", "coordinates": [ 103.808429724263348, 1.296685185028279 ] } },
{ "type": "Feature", "properties": { "POI_TYPE": "Primary", "POI_NAME": "Raffles' Girls Primary School", "POI_ADD": "21 Hillcrest Road S289072", "POSTCODE": "289072", "REMARK": null, "XI": 24970.515, "YI": 34623.711 }, "geometry": { "type": "Point", "coordinates": [ 103.806096975270677, 1.329398913558408 ] } },
{ "type": "Feature", "properties": { "POI_TYPE": "Primary", "POI_NAME": "Red Swastika", "POI_ADD": "350 Bedok North Avenue 3 S469719", "POSTCODE": "469719", "REMARK": null, "XI": 39250.581, "YI": 35108.616 }, "geometry": { "type": "Point", "coordinates": [ 103.934411421917034, 1.333782285017873 ] } },
{ "type": "Feature", "properties": { "POI_TYPE": "Primary", "POI_NAME": "River Valley Primary School", "POI_ADD": "341 River Valley Road S238372", "POSTCODE": "238372", "REMARK": null, "XI": 27955.24, "YI": 30823.041 }, "geometry": { "type": "Point", "coordinates": [ 103.832916391290283, 1.295027146297939 ] } },
{ "type": "Feature", "properties": { "POI_TYPE": "Primary", "POI_NAME": "Rivervale Primary School", "POI_ADD": "80 Rivervale Drive S545092", "POSTCODE": "545092", "REMARK": null, "XI": 35876.438, "YI": 41689.711 }, "geometry": { "type": "Point", "coordinates": [ 103.904094592605617, 1.393300380399657 ] } },
{ "type": "Feature", "properties": { "POI_TYPE": "Primary", "POI_NAME": "Rosyth Primary School", "POI_ADD": "21 Serangoon North Avenue 4 S555855", "POSTCODE": "555855", "REMARK": null, "XI": 32511.467, "YI": 39470.692 }, "geometry": { "type": "Point", "coordinates": [ 103.87385733802769, 1.373233090967361 ] } },
{ "type": "Feature", "properties": { "POI_TYPE": "Primary", "POI_NAME": "Rulang Primary School", "POI_ADD": "6 Jurong West Street 52 S649295", "POSTCODE": "649295", "REMARK": null, "XI": 15144.006, "YI": 36683.602 }, "geometry": { "type": "Point", "coordinates": [ 103.717799541703627, 1.34802523006172 ] } },
{ "type": "Feature", "properties": { "POI_TYPE": "Primary", "POI_NAME": "Sembawang Primary School", "POI_ADD": "10 Sembawang Drive S757715", "POSTCODE": "757715", "REMARK": null, "XI": 26588.445, "YI": 47364.289 }, "geometry": { "type": "Point", "coordinates": [ 103.820634359552301, 1.444620249355431 ] } },
{ "type": "Feature", "properties": { "POI_TYPE": "Primary", "POI_NAME": "Sengkang Primary School", "POI_ADD": "21 Compassvale Walk S545166", "POSTCODE": "545166", "REMARK": null, "XI": 35419.76, "YI": 41306.6 }, "geometry": { "type": "Point", "coordinates": [ 103.899990884884375, 1.389835784759395 ] } },
{ "type": "Feature", "properties": { "POI_TYPE": "Primary", "POI_NAME": "Shuqun Primary School", "POI_ADD": "8 Jurong West Street 51 S649332", "POSTCODE": "649332", "REMARK": null, "XI": 15524.816, "YI": 36661.03 }, "geometry": { "type": "Point", "coordinates": [ 103.721221359353748, 1.347821258262132 ] } },
{ "type": "Feature", "properties": { "POI_TYPE": "Primary", "POI_NAME": "Si Ling Primary School", "POI_ADD": "61 Woodlands Avenue 1 S739067", "POSTCODE": "739067", "REMARK": null, "XI": 22707.587, "YI": 46036.651 }, "geometry": { "type": "Point", "coordinates": [ 103.785761263076495, 1.432613111292337 ] } },
{ "type": "Feature", "properties": { "POI_TYPE": "Primary", "POI_NAME": "Singapore Chinese Girls' Primary", "POI_ADD": "190 Dunearn Road S309437", "POSTCODE": "309437", "REMARK": null, "XI": 27465.727, "YI": 33607.172 }, "geometry": { "type": "Point", "coordinates": [ 103.82851785725201, 1.320205840933961 ] } },
{ "type": "Feature", "properties": { "POI_TYPE": "Primary", "POI_NAME": "South View Primary School", "POI_ADD": "6 Choa Chu Kang Central S689762", "POSTCODE": "689762", "REMARK": null, "XI": 18356.272, "YI": 40451.6 }, "geometry": { "type": "Point", "coordinates": [ 103.746662487456618, 1.382102826356974 ] } },
{ "type": "Feature", "properties": { "POI_TYPE": "Primary", "POI_NAME": "Stamford Primary School", "POI_ADD": "1 Victoria Lane S198423", "POSTCODE": "198423", "REMARK": null, "XI": 30723.576, "YI": 31787.561 }, "geometry": { "type": "Point", "coordinates": [ 103.857791170949341, 1.303749806228338 ] } },
{ "type": "Feature", "properties": { "POI_TYPE": "Primary", "POI_NAME": "St. Andrew'S Junior", "POI_ADD": "2 Francis Thomas Drive S359334", "POSTCODE": "359334", "REMARK": null, "XI": 31623.619, "YI": 34710.762 }, "geometry": { "type": "Point", "coordinates": [ 103.865878816290646, 1.330186107172209 ] } },
{ "type": "Feature", "properties": { "POI_TYPE": "Primary", "POI_NAME": "St. Anthony'S Canossian Primary", "POI_ADD": "1602 Bedok North Avenue 4 S469701", "POSTCODE": "469701", "REMARK": null, "XI": 39993.372, "YI": 35207.91 }, "geometry": { "type": "Point", "coordinates": [ 103.941085851176169, 1.334679978205099 ] } },
{ "type": "Feature", "properties": { "POI_TYPE": "Primary", "POI_NAME": "St. Anthony'S Primary School", "POI_ADD": "1 Bukit Batok Street 34 S659321", "POSTCODE": "659321", "REMARK": null, "XI": 18660.655, "YI": 38468.715 }, "geometry": { "type": "Point", "coordinates": [ 103.749398219302037, 1.364170441282056 ] } },
{ "type": "Feature", "properties": { "POI_TYPE": "Primary", "POI_NAME": "St. Gabriel'S Primary School", "POI_ADD": "220 Lorong Chuan S556742", "POSTCODE": "556742", "REMARK": null, "XI": 31232.875, "YI": 36831.225 }, "geometry": { "type": "Point", "coordinates": [ 103.862367989649044, 1.349362863645992 ] } },
{ "type": "Feature", "properties": { "POI_TYPE": "Primary", "POI_NAME": "St. Hilda'S Primary School", "POI_ADD": "2 Tampines Avenue 3 S529706", "POSTCODE": "529706", "REMARK": null, "XI": 39533.177, "YI": 36832.406 }, "geometry": { "type": "Point", "coordinates": [ 103.936951360128646, 1.349371497886317 ] } },
{ "type": "Feature", "properties": { "POI_TYPE": "Primary", "POI_NAME": "St. Joseph'S Institution Junior", "POI_ADD": "3 Essex Road S309331", "POSTCODE": "309331", "REMARK": null, "XI": 29362.837, "YI": 33391.766 }, "geometry": { "type": "Point", "coordinates": [ 103.845564371509411, 1.318257759651153 ] } },
{ "type": "Feature", "properties": { "POI_TYPE": "Primary", "POI_NAME": "St. Margaret'S Primary School", "POI_ADD": "99 Wilkie Road S228091", "POSTCODE": "228091", "REMARK": null, "XI": 29435.179, "YI": 31791.18 }, "geometry": { "type": "Point", "coordinates": [ 103.846214327652191, 1.303782621573191 ] } },
{ "type": "Feature", "properties": { "POI_TYPE": "Primary", "POI_NAME": "St. Stephen'S School", "POI_ADD": "20 Siglap View S455789", "POSTCODE": "455789", "REMARK": null, "XI": 37292.998, "YI": 33454.119 }, "geometry": { "type": "Point", "coordinates": [ 103.91682094229246, 1.318820279361914 ] } },
{ "type": "Feature", "properties": { "POI_TYPE": "Primary", "POI_NAME": "Tampines North Primary", "POI_ADD": "30 Tampines Avenue 9 S529565", "POSTCODE": "529565", "REMARK": null, "XI": 40806.514, "YI": 38038.134 }, "geometry": { "type": "Point", "coordinates": [ 103.948393586136874, 1.360275133051081 ] } },
{ "type": "Feature", "properties": { "POI_TYPE": "Primary", "POI_NAME": "Tampines Primary School", "POI_ADD": "250 Tampines Street 12 S529426", "POSTCODE": "529426", "REMARK": null, "XI": 40377.704, "YI": 36945.173 }, "geometry": { "type": "Point", "coordinates": [ 103.944539998473147, 1.350390983421196 ] } },
{ "type": "Feature", "properties": { "POI_TYPE": "Primary", "POI_NAME": "Tanjong Katong Primary", "POI_ADD": "10 Seraya Road S437259", "POSTCODE": "437259", "REMARK": null, "XI": 35405.701, "YI": 31984.621 }, "geometry": { "type": "Point", "coordinates": [ 103.899862266324632, 1.305531181260484 ] } },
{ "type": "Feature", "properties": { "POI_TYPE": "Primary", "POI_NAME": "Tao Nan", "POI_ADD": "49 Marine Cresent S449761", "POSTCODE": "449761", "REMARK": null, "XI": 36699.399, "YI": 31882.636 }, "geometry": { "type": "Point", "coordinates": [ 103.911486712725917, 1.304608529154471 ] } },
{ "type": "Feature", "properties": { "POI_TYPE": "Primary", "POI_NAME": "Teck Ghee Primary School", "POI_ADD": "1 Ang Mo Kio Street 10 S569729", "POSTCODE": "569729", "REMARK": null, "XI": 30386.81, "YI": 38049.01 }, "geometry": { "type": "Point", "coordinates": [ 103.85476566186648, 1.360376156231556 ] } },
{ "type": "Feature", "properties": { "POI_TYPE": "Primary", "POI_NAME": "Teck Whye Primary School", "POI_ADD": "11 Teck Whye Walk S688261", "POSTCODE": "688261", "REMARK": null, "XI": 19162.675, "YI": 40642.535 }, "geometry": { "type": "Point", "coordinates": [ 103.753908557780548, 1.383829827410174 ] } },
{ "type": "Feature", "properties": { "POI_TYPE": "Primary", "POI_NAME": "Telok Kurau Primary School", "POI_ADD": "50 Bedok Reservoir Road S479238", "POSTCODE": "479238", "REMARK": null, "XI": 39247.605, "YI": 35500.928 }, "geometry": { "type": "Point", "coordinates": [ 103.934384825808962, 1.337330211196143 ] } },
{ "type": "Feature", "properties": { "POI_TYPE": "Primary", "POI_NAME": "Temasek Primary School", "POI_ADD": "501 Bedok South Avenue 3 S469300", "POSTCODE": "469300", "REMARK": null, "XI": 40568.337, "YI": 33257.671 }, "geometry": { "type": "Point", "coordinates": [ 103.946251433178617, 1.317042508030602 ] } },
{ "type": "Feature", "properties": { "POI_TYPE": "Primary", "POI_NAME": "Townsville Primary School", "POI_ADD": "3 Ang Mo Kio Avenue 10 S569730", "POSTCODE": "569730", "REMARK": null, "XI": 30214.755, "YI": 38014.761 }, "geometry": { "type": "Point", "coordinates": [ 103.853219630233255, 1.360066433820618 ] } },
{ "type": "Feature", "properties": { "POI_TYPE": "Primary", "POI_NAME": "Unity Primary School", "POI_ADD": "21 Choa Chu Kang Cresent S688288", "POSTCODE": "688288", "REMARK": null, "XI": 18945.671, "YI": 41425.261 }, "geometry": { "type": "Point", "coordinates": [ 103.751958372851718, 1.390908447080847 ] } },
{ "type": "Feature", "properties": { "POI_TYPE": "Primary", "POI_NAME": "Wellington Primary School", "POI_ADD": "10 Wellington Circle S757702", "POSTCODE": "757702", "REMARK": null, "XI": 26764.416, "YI": 48252.071 }, "geometry": { "type": "Point", "coordinates": [ 103.822215594002046, 1.452649035445752 ] } },
{ "type": "Feature", "properties": { "POI_TYPE": "Primary", "POI_NAME": "West Grove Primary School", "POI_ADD": "1 Jurong West Street 72 S649223", "POSTCODE": "649223", "REMARK": null, "XI": 13114.991, "YI": 36318.382 }, "geometry": { "type": "Point", "coordinates": [ 103.699567801297817, 1.344721380086093 ] } },
{ "type": "Feature", "properties": { "POI_TYPE": "Primary", "POI_NAME": "West View Primary School", "POI_ADD": "31 Senja Road S677742", "POSTCODE": "677742", "REMARK": null, "XI": 19859.643, "YI": 40698.404 }, "geometry": { "type": "Point", "coordinates": [ 103.760171321121604, 1.384335288911214 ] } },
{ "type": "Feature", "properties": { "POI_TYPE": "Primary", "POI_NAME": "White Sands Primary School", "POI_ADD": "2 Pasir Ris Street 11 S519075", "POSTCODE": "519075", "REMARK": null, "XI": 42215.876, "YI": 38708.987 }, "geometry": { "type": "Point", "coordinates": [ 103.961057936450587, 1.366341432099551 ] } },
{ "type": "Feature", "properties": { "POI_TYPE": "Primary", "POI_NAME": "Woodgrove Primary School", "POI_ADD": "2 Woodlands Drive 14 S738079", "POSTCODE": "738079", "REMARK": null, "XI": 23189.943, "YI": 45986.703 }, "geometry": { "type": "Point", "coordinates": [ 103.790095693628501, 1.432161486217178 ] } },
{ "type": "Feature", "properties": { "POI_TYPE": "Primary", "POI_NAME": "Woodlands Ring Primary School", "POI_ADD": "11 Woodlands Ring Road S738240", "POSTCODE": "738240", "REMARK": null, "XI": 24020.946, "YI": 46326.354 }, "geometry": { "type": "Point", "coordinates": [ 103.79756298817847, 1.435233295783486 ] } },
{ "type": "Feature", "properties": { "POI_TYPE": "Primary", "POI_NAME": "Xinghua Primary School", "POI_ADD": "45 Hougang Avenue 1 S649036", "POSTCODE": "649036", "REMARK": null, "XI": 11824.051, "YI": 36058.034 }, "geometry": { "type": "Point", "coordinates": [ 103.68796809052948, 1.34236622548545 ] } },
{ "type": "Feature", "properties": { "POI_TYPE": "Primary", "POI_NAME": "Xinmin Primary School", "POI_ADD": "9 Hougang Avenue 8 S538784", "POSTCODE": "538784", "REMARK": null, "XI": 33519.271, "YI": 39271.777 }, "geometry": { "type": "Point", "coordinates": [ 103.88291313900497, 1.371434003713835 ] } },
{ "type": "Feature", "properties": { "POI_TYPE": "Primary", "POI_NAME": "Xishann Primary School", "POI_ADD": "8 Yishun Street 21 S768611", "POSTCODE": "768611", "REMARK": null, "XI": 28388.53, "YI": 46144.437 }, "geometry": { "type": "Point", "coordinates": [ 103.836809888264767, 1.433588383125175 ] } },
{ "type": "Feature", "properties": { "POI_TYPE": "Primary", "POI_NAME": "Yangzheng Primary School", "POI_ADD": "15 Serangoon Avenue 3 S556108", "POSTCODE": "556108", "REMARK": null, "XI": 31926.669, "YI": 36754.904 }, "geometry": { "type": "Point", "coordinates": [ 103.868602153478875, 1.348672560877708 ] } },
{ "type": "Feature", "properties": { "POI_TYPE": "Primary", "POI_NAME": "Yew Tee Primary School", "POI_ADD": "10 Choa Chu Kang Street 64 S689100", "POSTCODE": "689100", "REMARK": null, "XI": 18764.348, "YI": 42126.692 }, "geometry": { "type": "Point", "coordinates": [ 103.750328823306162, 1.397251873444479 ] } },
{ "type": "Feature", "properties": { "POI_TYPE": "Primary", "POI_NAME": "Yio Chu Kang Primary School", "POI_ADD": "1 Hougang Street 51 S538720", "POSTCODE": "538720", "REMARK": null, "XI": 33835.549, "YI": 40027.92 }, "geometry": { "type": "Point", "coordinates": [ 103.88575526928841, 1.378272226859922 ] } },
{ "type": "Feature", "properties": { "POI_TYPE": "Primary", "POI_NAME": "Yishun Primary School", "POI_ADD": "551 Yishun Ring Road S768681", "POSTCODE": "768681", "REMARK": null, "XI": 27664.816, "YI": 46345.337 }, "geometry": { "type": "Point", "coordinates": [ 103.830306630475718, 1.435405250611042 ] } },
{ "type": "Feature", "properties": { "POI_TYPE": "Primary", "POI_NAME": "Yu Neng Primary School", "POI_ADD": "56 Bedok North Street 3 S469623", "POSTCODE": "469623", "REMARK": null, "XI": 39049.741, "YI": 35132.685 }, "geometry": { "type": "Point", "coordinates": [ 103.93260677131515, 1.334000030113002 ] } },
{ "type": "Feature", "properties": { "POI_TYPE": "Primary", "POI_NAME": "Yuhua Primary School", "POI_ADD": "158 Jurong East Street 24 S609558", "POSTCODE": "609558", "REMARK": null, "XI": 17693.01, "YI": 36076.709 }, "geometry": { "type": "Point", "coordinates": [ 103.740704099580896, 1.342537697756522 ] } },
{ "type": "Feature", "properties": { "POI_TYPE": "Primary", "POI_NAME": "Yumin Primary School", "POI_ADD": "3 Tampines Street 21 S529393", "POSTCODE": "529393", "REMARK": null, "XI": 41115.427, "YI": 37088.821 }, "geometry": { "type": "Point", "coordinates": [ 103.951168954922764, 1.351689767804662 ] } },
{ "type": "Feature", "properties": { "POI_TYPE": "Primary", "POI_NAME": "Zhenghua Primary School", "POI_ADD": "9 Fajar Road S679002", "POSTCODE": "679002", "REMARK": null, "XI": 20857.079, "YI": 40197.976 }, "geometry": { "type": "Point", "coordinates": [ 103.7691341546182, 1.379809861348354 ] } },
{ "type": "Feature", "properties": { "POI_TYPE": "Primary", "POI_NAME": "Zhonghua Primary School", "POI_ADD": "12 Serangoon Avenue 4 S556095", "POSTCODE": "556095", "REMARK": null, "XI": 32110.427, "YI": 38024.88 }, "geometry": { "type": "Point", "coordinates": [ 103.870253507514434, 1.36015774471137 ] } },
{ "type": "Feature", "properties": { "POI_TYPE": "Secondary", "POI_NAME": "Admiralty Secondary School", "POI_ADD": "31 Woodlands Crescent", "POSTCODE": "737916", "REMARK": null, "XI": 24582.749, "YI": 47433.114 }, "geometry": { "type": "Point", "coordinates": [ 103.802611188687663, 1.445242504306476 ] } },
{ "type": "Feature", "properties": { "POI_TYPE": "Secondary", "POI_NAME": "Ahmad Ibrahim Secondary School", "POI_ADD": "751 Yishun Avenue 7", "POSTCODE": "768928", "REMARK": null, "XI": 27609.563, "YI": 46432.605 }, "geometry": { "type": "Point", "coordinates": [ 103.829810128365537, 1.436194470073613 ] } },
{ "type": "Feature", "properties": { "POI_TYPE": "Secondary", "POI_NAME": "Anderson Secondary School", "POI_ADD": "10 Ang Mo Kio Street 53", "POSTCODE": "569206", "REMARK": null, "XI": 29971.832, "YI": 39703.611 }, "geometry": { "type": "Point", "coordinates": [ 103.851036916993706, 1.375339806727598 ] } },
{ "type": "Feature", "properties": { "POI_TYPE": "Secondary", "POI_NAME": "Ang Mo Kio Secondary School", "POI_ADD": "6 Ang Mo Kio Street 22", "POSTCODE": "569362", "REMARK": null, "XI": 29091.162, "YI": 38844.78 }, "geometry": { "type": "Point", "coordinates": [ 103.843123427945642, 1.367572891961263 ] } },
{ "type": "Feature", "properties": { "POI_TYPE": "Secondary", "POI_NAME": "Balestier Hill Secondary School", "POI_ADD": "11 Novena Rise", "POSTCODE": "307516", "REMARK": null, "XI": 29095.395, "YI": 34077.753 }, "geometry": { "type": "Point", "coordinates": [ 103.84316129179804, 1.324461594188063 ] } },
{ "type": "Feature", "properties": { "POI_TYPE": "Secondary", "POI_NAME": "Bartley Secondary School", "POI_ADD": "10 Jalan Bunga Rampai Road", "POSTCODE": "538403", "REMARK": null, "XI": 33492.712, "YI": 35815.331 }, "geometry": { "type": "Point", "coordinates": [ 103.88267385478845, 1.34017515346769 ] } },
{ "type": "Feature", "properties": { "POI_TYPE": "Secondary", "POI_NAME": "Beatty Secondary School", "POI_ADD": "1 Toa Payoh North", "POSTCODE": "318990", "REMARK": null, "XI": 30032.143, "YI": 35988.594 }, "geometry": { "type": "Point", "coordinates": [ 103.85157860294926, 1.341742514168649 ] } },
{ "type": "Feature", "properties": { "POI_TYPE": "Secondary", "POI_NAME": "Bedok Green Secondary School", "POI_ADD": "360 Bedok North Ave 3", "POSTCODE": "469722", "REMARK": null, "XI": 39389.114, "YI": 35121.486 }, "geometry": { "type": "Point", "coordinates": [ 103.935656222873035, 1.333898624786343 ] } },
{ "type": "Feature", "properties": { "POI_TYPE": "Secondary", "POI_NAME": "Bedok North Secondary School", "POI_ADD": "20 Jalan Damai", "POSTCODE": "419612", "REMARK": null, "XI": 36484.461, "YI": 35132.641 }, "geometry": { "type": "Point", "coordinates": [ 103.909556290783499, 1.334000459349707 ] } },
{ "type": "Feature", "properties": { "POI_TYPE": "Secondary", "POI_NAME": "Bedok South Secondary School", "POI_ADD": "1 Jalan Langgar Bedok", "POSTCODE": "468585", "REMARK": null, "XI": 41080.136, "YI": 34284.693 }, "geometry": { "type": "Point", "coordinates": [ 103.950850635831358, 1.326330298299501 ] } },
{ "type": "Feature", "properties": { "POI_TYPE": "Secondary", "POI_NAME": "Bedok Town Secondary School", "POI_ADD": "232 Bedok North Street 3", "POSTCODE": "469626", "REMARK": null, "XI": 38011.302, "YI": 34918.167 }, "geometry": { "type": "Point", "coordinates": [ 103.923275745438815, 1.33206036876121 ] } },
{ "type": "Feature", "properties": { "POI_TYPE": "Secondary", "POI_NAME": "Bedok View Secondary School", "POI_ADD": "6 Bedok South Avenue 3", "POSTCODE": "469293", "REMARK": null, "XI": 40250.94, "YI": 34047.728 }, "geometry": { "type": "Point", "coordinates": [ 103.94339977875353, 1.324187619390409 ] } },
{ "type": "Feature", "properties": { "POI_TYPE": "Secondary", "POI_NAME": "Bendemeer Secondary School", "POI_ADD": "1 St Wilfred Road", "POSTCODE": "327919", "REMARK": null, "XI": 31080.413, "YI": 34094.255 }, "geometry": { "type": "Point", "coordinates": [ 103.860997745943592, 1.324610696659519 ] } },
{ "type": "Feature", "properties": { "POI_TYPE": "Secondary", "POI_NAME": "Bishan Park Secondary School", "POI_ADD": "2 Sin Ming Walk", "POSTCODE": "575565", "REMARK": null, "XI": 27889.534, "YI": 38595.356 }, "geometry": { "type": "Point", "coordinates": [ 103.832325965952904, 1.365317210196145 ] } },
{ "type": "Feature", "properties": { "POI_TYPE": "Secondary", "POI_NAME": "Boon Lay Secondary School", "POI_ADD": "11 Jurong West Street 65", "POSTCODE": "648354", "REMARK": null, "XI": 13324.647, "YI": 36170.158 }, "geometry": { "type": "Point", "coordinates": [ 103.701451755359543, 1.343381001604031 ] } },
{ "type": "Feature", "properties": { "POI_TYPE": "Secondary", "POI_NAME": "Bowen Secondary School", "POI_ADD": "2 Lorong Napiri", "POSTCODE": "547529", "REMARK": null, "XI": 32853.141, "YI": 39265.575 }, "geometry": { "type": "Point", "coordinates": [ 103.876927489246512, 1.371378032292238 ] } },
{ "type": "Feature", "properties": { "POI_TYPE": "Secondary", "POI_NAME": "Bukit Batok Secondary School", "POI_ADD": "50 Bukit Batok West Avenue 8", "POSTCODE": "658962", "REMARK": null, "XI": 17697.688, "YI": 36711.202 }, "geometry": { "type": "Point", "coordinates": [ 103.740745917857524, 1.348275821076647 ] } },
{ "type": "Feature", "properties": { "POI_TYPE": "Secondary", "POI_NAME": "Bukit Merah Secondary School", "POI_ADD": "10 Lengkok Bahru", "POSTCODE": "159050", "REMARK": null, "XI": 25765.434, "YI": 29783.055 }, "geometry": { "type": "Point", "coordinates": [ 103.813240111303031, 1.285621798711812 ] } },
{ "type": "Feature", "properties": { "POI_TYPE": "Secondary", "POI_NAME": "Bukit Panjang Govt. High School", "POI_ADD": "38 Teck Whye Crescent", "POSTCODE": "688945", "REMARK": null, "XI": 19534.318, "YI": 40374.835 }, "geometry": { "type": "Point", "coordinates": [ 103.75724812509317, 1.381408956774955 ] } },
{ "type": "Feature", "properties": { "POI_TYPE": "Secondary", "POI_NAME": "Bukit View Secondary School", "POI_ADD": "16 Bukit Batok Street 21", "POSTCODE": "659633", "REMARK": null, "XI": 19094.574, "YI": 36467.216 }, "geometry": { "type": "Point", "coordinates": [ 103.753297867813913, 1.346069748360407 ] } },
{ "type": "Feature", "properties": { "POI_TYPE": "Secondary", "POI_NAME": "Canberra Secondary School", "POI_ADD": "51 Sembawang Drive", "POSTCODE": "757699", "REMARK": null, "XI": 25971.481, "YI": 48349.927 }, "geometry": { "type": "Point", "coordinates": [ 103.815090256206545, 1.453533962902777 ] } },
{ "type": "Feature", "properties": { "POI_TYPE": "Secondary", "POI_NAME": "Cedar Girls' Secondary School", "POI_ADD": "1 Cedar Avenue", "POSTCODE": "349692", "REMARK": null, "XI": 32570.297, "YI": 35327.659 }, "geometry": { "type": "Point", "coordinates": [ 103.874385337064481, 1.335764975940998 ] } },
{ "type": "Feature", "properties": { "POI_TYPE": "Secondary", "POI_NAME": "Chai Chee Secondary School", "POI_ADD": "5 Sennett Road", "POSTCODE": "466781", "REMARK": null, "XI": 39730.183, "YI": 33029.407 }, "geometry": { "type": "Point", "coordinates": [ 103.938720118497443, 1.314978504444664 ] } },
{ "type": "Feature", "properties": { "POI_TYPE": "Secondary", "POI_NAME": "Changkat Changi Secondary School", "POI_ADD": "23 Simei St 3", "POSTCODE": "529894", "REMARK": null, "XI": 41223.073, "YI": 35738.105 }, "geometry": { "type": "Point", "coordinates": [ 103.952135629707001, 1.339474351233173 ] } },
{ "type": "Feature", "properties": { "POI_TYPE": "Secondary", "POI_NAME": "Chestnut Drive Secondary School", "POI_ADD": "58 Chestnut Drive", "POSTCODE": "679301", "REMARK": null, "XI": 20977.763, "YI": 39086.612 }, "geometry": { "type": "Point", "coordinates": [ 103.770218853032404, 1.369759117987597 ] } },
{ "type": "Feature", "properties": { "POI_TYPE": "Secondary", "POI_NAME": "Chong Boon Secondary School", "POI_ADD": "2 Ang Mo Kio Street 44", "POSTCODE": "569250", "REMARK": null, "XI": 30726.348, "YI": 38571.508 }, "geometry": { "type": "Point", "coordinates": [ 103.857816685253312, 1.365101412180414 ] } },
{ "type": "Feature", "properties": { "POI_TYPE": "Secondary", "POI_NAME": "Chua Chu Kang Secondary School", "POI_ADD": "3 Teck Whye Crescent", "POSTCODE": "688845", "REMARK": null, "XI": 18865.653, "YI": 40589.954 }, "geometry": { "type": "Point", "coordinates": [ 103.75123960956472, 1.383354212734352 ] } },
{ "type": "Feature", "properties": { "POI_TYPE": "Secondary", "POI_NAME": "Clementi Town Secondary School", "POI_ADD": "121 Queensway", "POSTCODE": "149059", "REMARK": null, "XI": 24313.497, "YI": 31703.338 }, "geometry": { "type": "Point", "coordinates": [ 103.800193653198932, 1.302988023278024 ] } },
{ "type": "Feature", "properties": { "POI_TYPE": "Secondary", "POI_NAME": "Clementi Woods Secondary School", "POI_ADD": "170 West Coast Road", "POSTCODE": "127443", "REMARK": null, "XI": 20308.189, "YI": 32004.541 }, "geometry": { "type": "Point", "coordinates": [ 103.764204056228834, 1.305711259997442 ] } },
{ "type": "Feature", "properties": { "POI_TYPE": "Secondary", "POI_NAME": "Commonwealth Secondary School", "POI_ADD": "698 West Coast Road", "POSTCODE": "608784", "REMARK": null, "XI": 18168.8, "YI": 33474.281 }, "geometry": { "type": "Point", "coordinates": [ 103.744980191714447, 1.319002448131209 ] } },
{ "type": "Feature", "properties": { "POI_TYPE": "Secondary", "POI_NAME": "Compassvale Secondary School", "POI_ADD": "51 Compassvale Crescent", "POSTCODE": "545083", "REMARK": null, "XI": 35369.681, "YI": 42058.106 }, "geometry": { "type": "Point", "coordinates": [ 103.899541076106317, 1.396632143464472 ] } },
{ "type": "Feature", "properties": { "POI_TYPE": "Secondary", "POI_NAME": "Coral Secondary School", "POI_ADD": "31 Pasir Ris Street 51", "POSTCODE": "518901", "REMARK": null, "XI": 40851.611, "YI": 38840.083 }, "geometry": { "type": "Point", "coordinates": [ 103.948799157646505, 1.367527639464888 ] } },
{ "type": "Feature", "properties": { "POI_TYPE": "Secondary", "POI_NAME": "Crescent Girls' School", "POI_ADD": "357 Tanglin Road", "POSTCODE": "247961", "REMARK": null, "XI": 26261.298, "YI": 30653.308 }, "geometry": { "type": "Point", "coordinates": [ 103.817695599235464, 1.293492092267204 ] } },
{ "type": "Feature", "properties": { "POI_TYPE": "Secondary", "POI_NAME": "Damai Secondary School", "POI_ADD": "4800 Bedok Reservoir Road", "POSTCODE": "479229", "REMARK": null, "XI": 38450.144, "YI": 35440.433 }, "geometry": { "type": "Point", "coordinates": [ 103.927219162667811, 1.336783402944891 ] } },
{ "type": "Feature", "properties": { "POI_TYPE": "Secondary", "POI_NAME": "Deyi Secondary School", "POI_ADD": "1 Ang Mo Kio Street 42", "POSTCODE": "569277", "REMARK": null, "XI": 30142.999, "YI": 38832.737 }, "geometry": { "type": "Point", "coordinates": [ 103.852574913469169, 1.367463921857002 ] } },
{ "type": "Feature", "properties": { "POI_TYPE": "Secondary", "POI_NAME": "Dunearn Secondary School", "POI_ADD": "21 Bukit Batok West Avenue 2", "POSTCODE": "659204", "REMARK": null, "XI": 18164.606, "YI": 38410.177 }, "geometry": { "type": "Point", "coordinates": [ 103.744940904831736, 1.363640884512758 ] } },
{ "type": "Feature", "properties": { "POI_TYPE": "Secondary", "POI_NAME": "Dunman High School", "POI_ADD": "53 Mount Sinai Road", "POSTCODE": "276880", "REMARK": null, "XI": 22746.432, "YI": 32912.003 }, "geometry": { "type": "Point", "coordinates": [ 103.78611265134515, 1.313918533651821 ] } },
{ "type": "Feature", "properties": { "POI_TYPE": "Secondary", "POI_NAME": "Dunman Secondary School", "POI_ADD": "21 Tampines Street 45", "POSTCODE": "529093", "REMARK": null, "XI": 41583.406, "YI": 38114.57 }, "geometry": { "type": "Point", "coordinates": [ 103.955374499531359, 1.360966046309316 ] } },
{ "type": "Feature", "properties": { "POI_TYPE": "Secondary", "POI_NAME": "East Spring Secondary School", "POI_ADD": "30 Tampines Street 34", "POSTCODE": "529231", "REMARK": null, "XI": 42234.497, "YI": 37698.091 }, "geometry": { "type": "Point", "coordinates": [ 103.961224776721537, 1.357199263050335 ] } },
{ "type": "Feature", "properties": { "POI_TYPE": "Secondary", "POI_NAME": "East View Secondary School", "POI_ADD": "3 Tampines Street 42", "POSTCODE": "529177", "REMARK": null, "XI": 40995.838, "YI": 37857.381 }, "geometry": { "type": "Point", "coordinates": [ 103.95009470674394, 1.358640388519817 ] } },
{ "type": "Feature", "properties": { "POI_TYPE": "Secondary", "POI_NAME": "Evergreen Secondary School", "POI_ADD": "11 Woodlands Street 83", "POSTCODE": "738489", "REMARK": null, "XI": 23676.617, "YI": 46989.04 }, "geometry": { "type": "Point", "coordinates": [ 103.79446876321812, 1.441226335596685 ] } },
{ "type": "Feature", "properties": { "POI_TYPE": "Secondary", "POI_NAME": "Fajar Secondary School", "POI_ADD": "31 Gangsa Road", "POSTCODE": "678972", "REMARK": null, "XI": 20366.504, "YI": 39609.891 }, "geometry": { "type": "Point", "coordinates": [ 103.764726129814861, 1.374491310981266 ] } },
{ "type": "Feature", "properties": { "POI_TYPE": "Secondary", "POI_NAME": "First Toa Payoh Secondary School", "POI_ADD": "580 Toa Payoh East", "POSTCODE": "319133", "REMARK": null, "XI": 30770.38, "YI": 35041.444 }, "geometry": { "type": "Point", "coordinates": [ 103.858212018654839, 1.333176767508038 ] } },
{ "type": "Feature", "properties": { "POI_TYPE": "Secondary", "POI_NAME": "Fuchun Secondary School", "POI_ADD": "21 Woodlands Avenue 1", "POSTCODE": "739062", "REMARK": null, "XI": 21806.707, "YI": 45826.183 }, "geometry": { "type": "Point", "coordinates": [ 103.777666056092272, 1.430709532265075 ] } },
{ "type": "Feature", "properties": { "POI_TYPE": "Secondary", "POI_NAME": "Fuhua Secondary School", "POI_ADD": "5 Jurong West Street 41", "POSTCODE": "649410", "REMARK": null, "XI": 16160.726, "YI": 36557.873 }, "geometry": { "type": "Point", "coordinates": [ 103.726935436443327, 1.346888602584487 ] } },
{ "type": "Feature", "properties": { "POI_TYPE": "Secondary", "POI_NAME": "Gan Eng Seng School", "POI_ADD": "1 Henderson Road", "POSTCODE": "159561", "REMARK": null, "XI": 26884.32, "YI": 30196.204 }, "geometry": { "type": "Point", "coordinates": [ 103.82329373412918, 1.289358232862399 ] } },
{ "type": "Feature", "properties": { "POI_TYPE": "Secondary", "POI_NAME": "Greendale Secondary School", "POI_ADD": "51 Edgedale Plains", "POSTCODE": "828866", "REMARK": null, "XI": 36707.285, "YI": 42074.805 }, "geometry": { "type": "Point", "coordinates": [ 103.911560519432413, 1.396782791454255 ] } },
{ "type": "Feature", "properties": { "POI_TYPE": "Secondary", "POI_NAME": "Greenridge Secondary School", "POI_ADD": "32 Bukit Panjang Ring Road", "POSTCODE": "679938", "REMARK": null, "XI": 21450.318, "YI": 40421.21 }, "geometry": { "type": "Point", "coordinates": [ 103.774464793824407, 1.381828847407456 ] } },
{ "type": "Feature", "properties": { "POI_TYPE": "Secondary", "POI_NAME": "Greenview Secondary School", "POI_ADD": "15 Pasir Ris Street 21", "POSTCODE": "518969", "REMARK": null, "XI": 42400.077, "YI": 39030.024 }, "geometry": { "type": "Point", "coordinates": [ 103.962713260950693, 1.369244679551397 ] } },
{ "type": "Feature", "properties": { "POI_TYPE": "Secondary", "POI_NAME": "Guangyang Secondary School", "POI_ADD": "8 Bishan Street 12", "POSTCODE": "579807", "REMARK": null, "XI": 29913.291, "YI": 36302.67 }, "geometry": { "type": "Point", "coordinates": [ 103.850510666293886, 1.344582913627329 ] } },
{ "type": "Feature", "properties": { "POI_TYPE": "Secondary", "POI_NAME": "Henderson Secondary School", "POI_ADD": "100 Henderson Rd", "POSTCODE": "159544", "REMARK": null, "XI": 26462.088, "YI": 29715.726 }, "geometry": { "type": "Point", "coordinates": [ 103.819499828865588, 1.285012940731799 ] } },
{ "type": "Feature", "properties": { "POI_TYPE": "Secondary", "POI_NAME": "Hillgrove Secondary School", "POI_ADD": "10 Bukit Batok Street 52", "POSTCODE": "659250", "REMARK": null, "XI": 19153.426, "YI": 37265.923 }, "geometry": { "type": "Point", "coordinates": [ 103.753826454186736, 1.353292980844172 ] } },
{ "type": "Feature", "properties": { "POI_TYPE": "Secondary", "POI_NAME": "Hong Kah Secondary School", "POI_ADD": "931 Jurong West Street 42", "POSTCODE": "649370", "REMARK": null, "XI": 16164.384, "YI": 37118.355 }, "geometry": { "type": "Point", "coordinates": [ 103.726968085603204, 1.351957395139529 ] } },
{ "type": "Feature", "properties": { "POI_TYPE": "Secondary", "POI_NAME": "Hougang Secondary School", "POI_ADD": "2 Hougang Street 93", "POSTCODE": "534256", "REMARK": null, "XI": 33384.592, "YI": 39992.562 }, "geometry": { "type": "Point", "coordinates": [ 103.881703084241281, 1.377952548154382 ] } },
{ "type": "Feature", "properties": { "POI_TYPE": "Secondary", "POI_NAME": "Hua Yi Secondary School", "POI_ADD": "60 Jurong West St 42", "POSTCODE": "649371", "REMARK": null, "XI": 15633.256, "YI": 37225.814 }, "geometry": { "type": "Point", "coordinates": [ 103.722195526388546, 1.352928999151766 ] } },
{ "type": "Feature", "properties": { "POI_TYPE": "Secondary", "POI_NAME": "Junyuan Secondary School", "POI_ADD": "11 Tampines Street 84", "POSTCODE": "528933", "REMARK": null, "XI": 39248.937, "YI": 37288.482 }, "geometry": { "type": "Point", "coordinates": [ 103.934397459819579, 1.353496188649093 ] } },
{ "type": "Feature", "properties": { "POI_TYPE": "Secondary", "POI_NAME": "Jurong Secondary School", "POI_ADD": "31 Yuan Ching Road", "POSTCODE": "618652", "REMARK": null, "XI": 15868.109, "YI": 34662.302 }, "geometry": { "type": "Point", "coordinates": [ 103.724306853277696, 1.329745645256918 ] } },
{ "type": "Feature", "properties": { "POI_TYPE": "Secondary", "POI_NAME": "Jurong West Secondary School", "POI_ADD": "61 Jurong West Street 65", "POSTCODE": "648348", "REMARK": null, "XI": 13357.863, "YI": 35368.692 }, "geometry": { "type": "Point", "coordinates": [ 103.701750607154153, 1.336132862954475 ] } },
{ "type": "Feature", "properties": { "POI_TYPE": "Secondary", "POI_NAME": "Jurongville Secondary School", "POI_ADD": "202 Jurong East Avenue 1", "POSTCODE": "609790", "REMARK": null, "XI": 16445.883, "YI": 36950.412 }, "geometry": { "type": "Point", "coordinates": [ 103.729497593774127, 1.350438691080047 ] } },
{ "type": "Feature", "properties": { "POI_TYPE": "Secondary", "POI_NAME": "Juying Secondary School", "POI_ADD": "33 Jurong West Street 91", "POSTCODE": "649038", "REMARK": null, "XI": 11774.285, "YI": 35628.134 }, "geometry": { "type": "Point", "coordinates": [ 103.687521144463133, 1.338478348350815 ] } },
{ "type": "Feature", "properties": { "POI_TYPE": "Secondary", "POI_NAME": "Kent Ridge Secondary School", "POI_ADD": "147 West Coast Road", "POSTCODE": "127368", "REMARK": null, "XI": 20435.828, "YI": 31585.006 }, "geometry": { "type": "Point", "coordinates": [ 103.765351053629004, 1.301917167398864 ] } },
{ "type": "Feature", "properties": { "POI_TYPE": "Secondary", "POI_NAME": "Kranji Secondary School", "POI_ADD": "61 Choa Chu Kang Street 51", "POSTCODE": "689333", "REMARK": null, "XI": 17751.998, "YI": 41432.671 }, "geometry": { "type": "Point", "coordinates": [ 103.74123229639207, 1.390975063687952 ] } },
{ "type": "Feature", "properties": { "POI_TYPE": "Secondary", "POI_NAME": "Loyang Secondary School", "POI_ADD": "12 Pasir Ris Street 11", "POSTCODE": "519073", "REMARK": null, "XI": 41884.681, "YI": 38745.883 }, "geometry": { "type": "Point", "coordinates": [ 103.958081945123539, 1.366675262916621 ] } },
{ "type": "Feature", "properties": { "POI_TYPE": "Secondary", "POI_NAME": "Macpherson Secondary School", "POI_ADD": "121 Circuit Road", "POSTCODE": "379499", "REMARK": null, "XI": 34231.636, "YI": 34392.641 }, "geometry": { "type": "Point", "coordinates": [ 103.889313232562458, 1.327308711884904 ] } },
{ "type": "Feature", "properties": { "POI_TYPE": "Secondary", "POI_NAME": "Marsiling Secondary School", "POI_ADD": "12 Marsiling Road", "POSTCODE": "739110", "REMARK": null, "XI": 21630.74, "YI": 46587.825 }, "geometry": { "type": "Point", "coordinates": [ 103.776084657608251, 1.437597504096893 ] } },
{ "type": "Feature", "properties": { "POI_TYPE": "Secondary", "POI_NAME": "Mayflower Secondary School", "POI_ADD": "2 Ang Mo Kio Street 21", "POSTCODE": "569384", "REMARK": null, "XI": 28182.858, "YI": 38951.394 }, "geometry": { "type": "Point", "coordinates": [ 103.834961685728814, 1.368537090451484 ] } },
{ "type": "Feature", "properties": { "POI_TYPE": "Secondary", "POI_NAME": "National Junior College", "POI_ADD": "37 Hillcrest Road", "POSTCODE": "288913", "REMARK": null, "XI": 24827.855, "YI": 34794.969 }, "geometry": { "type": "Point", "coordinates": [ 103.804815078332666, 1.330947695499803 ] } },
{ "type": "Feature", "properties": { "POI_TYPE": "Secondary", "POI_NAME": "Naval Base Secondary School", "POI_ADD": "901 Yishun Ring Road", "POSTCODE": "768689", "REMARK": null, "XI": 27706.449, "YI": 44567.95 }, "geometry": { "type": "Point", "coordinates": [ 103.830680761106592, 1.419331205733294 ] } },
{ "type": "Feature", "properties": { "POI_TYPE": "Secondary", "POI_NAME": "New Town Secondary School", "POI_ADD": "1020 Dover Road", "POSTCODE": "139657", "REMARK": null, "XI": 21280.817, "YI": 32388.516 }, "geometry": { "type": "Point", "coordinates": [ 103.772943487700147, 1.309184019147829 ] } },
{ "type": "Feature", "properties": { "POI_TYPE": "Secondary", "POI_NAME": "North View Secondary School", "POI_ADD": "530 Yishun Ring Road", "POSTCODE": "768680", "REMARK": null, "XI": 29256.316, "YI": 45483.954 }, "geometry": { "type": "Point", "coordinates": [ 103.84460773774957, 1.427615188700292 ] } },
{ "type": "Feature", "properties": { "POI_TYPE": "Secondary", "POI_NAME": "North Vista Secondary School", "POI_ADD": "11 Rivervale Link", "POSTCODE": "545081", "REMARK": null, "XI": 35354.685, "YI": 40323.393 }, "geometry": { "type": "Point", "coordinates": [ 103.89940588940712, 1.38094403543355 ] } },
{ "type": "Feature", "properties": { "POI_TYPE": "Secondary", "POI_NAME": "Northbrooks Secondary School", "POI_ADD": "585 Yishun Ring Road", "POSTCODE": "768692", "REMARK": null, "XI": 29187.002, "YI": 44854.659 }, "geometry": { "type": "Point", "coordinates": [ 103.843984861325978, 1.421924075217963 ] } },
{ "type": "Feature", "properties": { "POI_TYPE": "Secondary", "POI_NAME": "Northland Secondary School", "POI_ADD": "3 Yishun Street 22", "POSTCODE": "768578", "REMARK": null, "XI": 28737.778, "YI": 46423.367 }, "geometry": { "type": "Point", "coordinates": [ 103.839948219399204, 1.436110918049285 ] } },
{ "type": "Feature", "properties": { "POI_TYPE": "Secondary", "POI_NAME": "Orchid Park Secondary School", "POI_ADD": "10 Yishun Street 81", "POSTCODE": "768454", "REMARK": null, "XI": 28471.407, "YI": 44170.518 }, "geometry": { "type": "Point", "coordinates": [ 103.837554584074397, 1.415736971784672 ] } },
{ "type": "Feature", "properties": { "POI_TYPE": "Secondary", "POI_NAME": "Outram Secondary School", "POI_ADD": "3 York Hill", "POSTCODE": "168622", "REMARK": null, "XI": 28410.618, "YI": 29798.648 }, "geometry": { "type": "Point", "coordinates": [ 103.837008146314915, 1.285762893232208 ] } },
{ "type": "Feature", "properties": { "POI_TYPE": "Secondary", "POI_NAME": "Pasir Ris Crest Secondary School", "POI_ADD": "11 Pasir Ris Street 41", "POSTCODE": "518934", "REMARK": null, "XI": 42106.818, "YI": 39485.224 }, "geometry": { "type": "Point", "coordinates": [ 103.960078346294011, 1.373361477243832 ] } },
{ "type": "Feature", "properties": { "POI_TYPE": "Secondary", "POI_NAME": "Pasir Ris Secondary School", "POI_ADD": "2 Bedok South Road", "POSTCODE": "469268", "REMARK": null, "XI": 38326.266, "YI": 33788.259 }, "geometry": { "type": "Point", "coordinates": [ 103.926105490575608, 1.321841788621735 ] } },
{ "type": "Feature", "properties": { "POI_TYPE": "Secondary", "POI_NAME": "Pei Hwa Secondary School", "POI_ADD": "21 Fernvale Link", "POSTCODE": "797702", "REMARK": null, "XI": 32896.639, "YI": 41424.358 }, "geometry": { "type": "Point", "coordinates": [ 103.87731870845721, 1.39090127993677 ] } },
{ "type": "Feature", "properties": { "POI_TYPE": "Secondary", "POI_NAME": "Peicai Secondary School", "POI_ADD": "10 Serangoon Avenue 4", "POSTCODE": "556094", "REMARK": null, "XI": 32157.185, "YI": 37847.766 }, "geometry": { "type": "Point", "coordinates": [ 103.870673634671661, 1.358555982645396 ] } },
{ "type": "Feature", "properties": { "POI_TYPE": "Secondary", "POI_NAME": "Peirce Secondary School", "POI_ADD": "02 Ang Mo Kio Street 23", "POSTCODE": "569341", "REMARK": null, "XI": 28782.057, "YI": 38984.639 }, "geometry": { "type": "Point", "coordinates": [ 103.840345908326498, 1.36883773660017 ] } },
{ "type": "Feature", "properties": { "POI_TYPE": "Secondary", "POI_NAME": "Ping Yi Secondary School", "POI_ADD": "61 Chai Chee Street", "POSTCODE": "468980", "REMARK": null, "XI": 37698.129, "YI": 34472.095 }, "geometry": { "type": "Point", "coordinates": [ 103.920461571035716, 1.328026358006852 ] } },
{ "type": "Feature", "properties": { "POI_TYPE": "Secondary", "POI_NAME": "Pioneer Secondary School", "POI_ADD": "21 Jurong West Street 81", "POSTCODE": "649075", "REMARK": null, "XI": 12565.551, "YI": 36673.911 }, "geometry": { "type": "Point", "coordinates": [ 103.69463057956159, 1.347936371269914 ] } },
{ "type": "Feature", "properties": { "POI_TYPE": "Secondary", "POI_NAME": "Punggol Secondary School", "POI_ADD": "51 Edgefield Plains", "POSTCODE": "828870", "REMARK": null, "XI": 36441.667, "YI": 42618.591 }, "geometry": { "type": "Point", "coordinates": [ 103.909173887987052, 1.401700671002083 ] } },
{ "type": "Feature", "properties": { "POI_TYPE": "Secondary", "POI_NAME": "Queenstown Secondary School", "POI_ADD": "1 Strathmore Road", "POSTCODE": "148800", "REMARK": null, "XI": 25823.796, "YI": 30707.879 }, "geometry": { "type": "Point", "coordinates": [ 103.813764453276477, 1.293985585738281 ] } },
{ "type": "Feature", "properties": { "POI_TYPE": "Secondary", "POI_NAME": "Queensway Secondary School", "POI_ADD": "2A Margaret Drive", "POSTCODE": "149295", "REMARK": null, "XI": 24616.876, "YI": 31372.26 }, "geometry": { "type": "Point", "coordinates": [ 103.802919688728764, 1.299993905438009 ] } },
{ "type": "Feature", "properties": { "POI_TYPE": "Secondary", "POI_NAME": "Regent Secondary School", "POI_ADD": "50 Choa Chu Kang North 5", "POSTCODE": "689621", "REMARK": null, "XI": 18815.101, "YI": 41710.226 }, "geometry": { "type": "Point", "coordinates": [ 103.750785010773626, 1.393485524590184 ] } },
{ "type": "Feature", "properties": { "POI_TYPE": "Secondary", "POI_NAME": "River Valley High School", "POI_ADD": "2 Malan Road", "POSTCODE": "109433", "REMARK": null, "XI": 24714.23, "YI": 28739.654 }, "geometry": { "type": "Point", "coordinates": [ 103.803794732263356, 1.276185554773277 ] } },
{ "type": "Feature", "properties": { "POI_TYPE": "Secondary", "POI_NAME": "Riverside Secondary School", "POI_ADD": "3 Woodlands Street 81", "POSTCODE": "738524", "REMARK": null, "XI": 23038.891, "YI": 46904.093 }, "geometry": { "type": "Point", "coordinates": [ 103.788738188825789, 1.440458000319729 ] } },
{ "type": "Feature", "properties": { "POI_TYPE": "Secondary", "POI_NAME": "Sembawang Secondary School", "POI_ADD": "30 Sembawang Crescent", "POSTCODE": "757704", "REMARK": null, "XI": 26129.155, "YI": 47468.349 }, "geometry": { "type": "Point", "coordinates": [ 103.816507177491687, 1.445561303201503 ] } },
{ "type": "Feature", "properties": { "POI_TYPE": "Secondary", "POI_NAME": "Seng Kang Secondary School", "POI_ADD": "10 Compassvale Lane", "POSTCODE": "545090", "REMARK": null, "XI": 35194.458, "YI": 40868.573 }, "geometry": { "type": "Point", "coordinates": [ 103.897966264771753, 1.385874484764793 ] } },
{ "type": "Feature", "properties": { "POI_TYPE": "Secondary", "POI_NAME": "Serangoon Garden Secondary School", "POI_ADD": "21 Serangoon North Avenue 1", "POSTCODE": "555889", "REMARK": null, "XI": 32000.74, "YI": 39065.199 }, "geometry": { "type": "Point", "coordinates": [ 103.869268036427115, 1.369566031718687 ] } },
{ "type": "Feature", "properties": { "POI_TYPE": "Secondary", "POI_NAME": "Serangoon Secondary School", "POI_ADD": "11 Upper Serangoon View", "POSTCODE": "534237", "REMARK": null, "XI": 35746.461, "YI": 39660.538 }, "geometry": { "type": "Point", "coordinates": [ 103.902926112258868, 1.374949315307779 ] } },
{ "type": "Feature", "properties": { "POI_TYPE": "Secondary", "POI_NAME": "Shuqun Secondary School", "POI_ADD": "450 Jurong East Street 21", "POSTCODE": "609604", "REMARK": null, "XI": 17507.325, "YI": 35782.203 }, "geometry": { "type": "Point", "coordinates": [ 103.739035712069921, 1.339874229487672 ] } },
{ "type": "Feature", "properties": { "POI_TYPE": "Secondary", "POI_NAME": "Si Ling Secondary School", "POI_ADD": "11 Marsiling Lane", "POSTCODE": "739148", "REMARK": null, "XI": 21471.928, "YI": 47352.285 }, "geometry": { "type": "Point", "coordinates": [ 103.774657402779241, 1.444510962993509 ] } },
{ "type": "Feature", "properties": { "POI_TYPE": "Secondary", "POI_NAME": "Siglap Secondary School", "POI_ADD": "10 Pasir Ris Drive 10", "POSTCODE": "519385", "REMARK": null, "XI": 39898.822, "YI": 40260.051 }, "geometry": { "type": "Point", "coordinates": [ 103.940238273312232, 1.380369699057095 ] } },
{ "type": "Feature", "properties": { "POI_TYPE": "Secondary", "POI_NAME": "Springfield Secondary School", "POI_ADD": "30 Tampines Avenue 8", "POSTCODE": "529593", "REMARK": null, "XI": 38681.449, "YI": 36871.235 }, "geometry": { "type": "Point", "coordinates": [ 103.929298074631703, 1.349722968983314 ] } },
{ "type": "Feature", "properties": { "POI_TYPE": "Secondary", "POI_NAME": "Swiss Cottage Secondary School", "POI_ADD": "3 Bukit Batok Street 34", "POSTCODE": "659322", "REMARK": null, "XI": 18747.926, "YI": 38438.654 }, "geometry": { "type": "Point", "coordinates": [ 103.75018241729947, 1.363898608005891 ] } },
{ "type": "Feature", "properties": { "POI_TYPE": "Secondary", "POI_NAME": "Tampines Secondary School", "POI_ADD": "252 Tampines Street 12", "POSTCODE": "529427", "REMARK": null, "XI": 40386.896, "YI": 36843.491 }, "geometry": { "type": "Point", "coordinates": [ 103.944622552434041, 1.349471405517022 ] } },
{ "type": "Feature", "properties": { "POI_TYPE": "Secondary", "POI_NAME": "Tanglin Secondary School", "POI_ADD": "301 West Coast Road", "POSTCODE": "127391", "REMARK": null, "XI": 19732.913, "YI": 32487.268 }, "geometry": { "type": "Point", "coordinates": [ 103.759034806470297, 1.310076720724887 ] } },
{ "type": "Feature", "properties": { "POI_TYPE": "Secondary", "POI_NAME": "Tanjong Katong Girls' School", "POI_ADD": "20 Dunman Lane", "POSTCODE": "439272", "REMARK": null, "XI": 35000.493, "YI": 32234.686 }, "geometry": { "type": "Point", "coordinates": [ 103.896221340683894, 1.307792773907659 ] } },
{ "type": "Feature", "properties": { "POI_TYPE": "Secondary", "POI_NAME": "Tanjong Katong Secondary School", "POI_ADD": "130 Haig Road", "POSTCODE": "438796", "REMARK": null, "XI": 35227.328, "YI": 32232.26 }, "geometry": { "type": "Point", "coordinates": [ 103.898259559692676, 1.307770781810452 ] } },
{ "type": "Feature", "properties": { "POI_TYPE": "Secondary", "POI_NAME": "Teck Whye Secondary School", "POI_ADD": "31 Teck Whye Crescent", "POSTCODE": "688848", "REMARK": null, "XI": 19337.835, "YI": 40551.288 }, "geometry": { "type": "Point", "coordinates": [ 103.75548252821342, 1.383004675495769 ] } },
{ "type": "Feature", "properties": { "POI_TYPE": "Secondary", "POI_NAME": "Telok Kurau Secondary School", "POI_ADD": "3 Chin Cheng Avenue", "POSTCODE": "429401", "REMARK": null, "XI": 36135.198, "YI": 33254.284 }, "geometry": { "type": "Point", "coordinates": [ 103.906417467648538, 1.31701337297553 ] } },
{ "type": "Feature", "properties": { "POI_TYPE": "Secondary", "POI_NAME": "Temasek Secondary School", "POI_ADD": "600 Upper East Coast Road", "POSTCODE": "465561", "REMARK": null, "XI": 40696.308, "YI": 33163.575 }, "geometry": { "type": "Point", "coordinates": [ 103.947401277030139, 1.316191486045219 ] } },
{ "type": "Feature", "properties": { "POI_TYPE": "Secondary", "POI_NAME": "Unity Secondary School", "POI_ADD": "20 Choa Chu Kang Street 62", "POSTCODE": "689143", "REMARK": null, "XI": 18219.851, "YI": 42337.211 }, "geometry": { "type": "Point", "coordinates": [ 103.745436013129819, 1.399155550307992 ] } },
{ "type": "Feature", "properties": { "POI_TYPE": "Secondary", "POI_NAME": "Victoria Junior College", "POI_ADD": "20 Marine Vista", "POSTCODE": "449035", "REMARK": null, "XI": 37499.57, "YI": 32177.63 }, "geometry": { "type": "Point", "coordinates": [ 103.918676705016736, 1.307276112882106 ] } },
{ "type": "Feature", "properties": { "POI_TYPE": "Secondary", "POI_NAME": "Victoria School", "POI_ADD": "2 Siglap Link", "POSTCODE": "448880", "REMARK": null, "XI": 38387.597, "YI": 32353.713 }, "geometry": { "type": "Point", "coordinates": [ 103.926656099308161, 1.30886825765778 ] } },
{ "type": "Feature", "properties": { "POI_TYPE": "Secondary", "POI_NAME": "Westwood Secondary School", "POI_ADD": "11 Jurong West Street 25", "POSTCODE": "648350", "REMARK": null, "XI": 13444.368, "YI": 37332.357 }, "geometry": { "type": "Point", "coordinates": [ 103.70252695712287, 1.353891546771152 ] } },
{ "type": "Feature", "properties": { "POI_TYPE": "Secondary", "POI_NAME": "Whitley Secondary School", "POI_ADD": "430 Toa Payoh Lorong 1", "POSTCODE": "319759", "REMARK": null, "XI": 29179.714, "YI": 35807.896 }, "geometry": { "type": "Point", "coordinates": [ 103.843919010097608, 1.340108391042112 ] } },
{ "type": "Feature", "properties": { "POI_TYPE": "Secondary", "POI_NAME": "Woodgrove Secondary School", "POI_ADD": "3 Woodlands Avenue 6", "POSTCODE": "738990", "REMARK": null, "XI": 23883.22, "YI": 45598.181 }, "geometry": { "type": "Point", "coordinates": [ 103.796325494670882, 1.428647944295667 ] } },
{ "type": "Feature", "properties": { "POI_TYPE": "Secondary", "POI_NAME": "Woodlands Ring Secondary School", "POI_ADD": "10 Woodlands Ring Road", "POSTCODE": "738239", "REMARK": null, "XI": 24435.696, "YI": 46449.081 }, "geometry": { "type": "Point", "coordinates": [ 103.80128989610769, 1.436343249736248 ] } },
{ "type": "Feature", "properties": { "POI_TYPE": "Secondary", "POI_NAME": "Xinmin Secondary School", "POI_ADD": "11 Hougang Avenue 8", "POSTCODE": "538789", "REMARK": null, "XI": 33595.161, "YI": 39333.662 }, "geometry": { "type": "Point", "coordinates": [ 103.883595075923751, 1.371993655015455 ] } },
{ "type": "Feature", "properties": { "POI_TYPE": "Secondary", "POI_NAME": "Yio Chu Kang Secondary School", "POI_ADD": "3063 Ang Mo Kio Avenue 5", "POSTCODE": "569868", "REMARK": null, "XI": 28948.671, "YI": 40073.107 }, "geometry": { "type": "Point", "coordinates": [ 103.841843086547144, 1.378681447160232 ] } },
{ "type": "Feature", "properties": { "POI_TYPE": "Secondary", "POI_NAME": "Yishun Secondary School", "POI_ADD": "4 Yishun Street 71", "POSTCODE": "768516", "REMARK": null, "XI": 27482.212, "YI": 45457.723 }, "geometry": { "type": "Point", "coordinates": [ 103.828665775611313, 1.427377988068538 ] } },
{ "type": "Feature", "properties": { "POI_TYPE": "Secondary", "POI_NAME": "Yishun Town Secondary School", "POI_ADD": "61 Sembawang Drive", "POSTCODE": "757622", "REMARK": null, "XI": 25844.429, "YI": 48741.195 }, "geometry": { "type": "Point", "coordinates": [ 103.813948533613214, 1.457072438575107 ] } },
{ "type": "Feature", "properties": { "POI_TYPE": "Secondary", "POI_NAME": "Yuan Ching Secondary School", "POI_ADD": "103 Yuan Ching Road", "POSTCODE": "618654", "REMARK": null, "XI": 15314.402, "YI": 35971.524 }, "geometry": { "type": "Point", "coordinates": [ 103.719330951624258, 1.341585535045007 ] } },
{ "type": "Feature", "properties": { "POI_TYPE": "Secondary", "POI_NAME": "Yuhua Secondary School", "POI_ADD": "35 Jurong West Street 41", "POSTCODE": "649406", "REMARK": null, "XI": 15726.977, "YI": 36647.353 }, "geometry": { "type": "Point", "coordinates": [ 103.723037903863229, 1.347697652032075 ] } },
{ "type": "Feature", "properties": { "POI_TYPE": "Secondary", "POI_NAME": "Yusof Ishak Secondary School", "POI_ADD": "11 Bukit Batok Street 25", "POSTCODE": "658712", "REMARK": null, "XI": 19769.976, "YI": 36015.133 }, "geometry": { "type": "Point", "coordinates": [ 103.759366888237736, 1.341981466548561 ] } },
{ "type": "Feature", "properties": { "POI_TYPE": "Secondary", "POI_NAME": "Zhenghua Secondary School", "POI_ADD": "91 Senja Road", "POSTCODE": "677741", "REMARK": null, "XI": 20483.837, "YI": 41143.829 }, "geometry": { "type": "Point", "coordinates": [ 103.765780058884815, 1.388363717624432 ] } },
{ "type": "Feature", "properties": { "POI_TYPE": "Secondary", "POI_NAME": "Zhonghua Secondary School", "POI_ADD": "13 Serangoon Avenue 3", "POSTCODE": "556123", "REMARK": null, "XI": 32025.083, "YI": 36790.564 }, "geometry": { "type": "Point", "coordinates": [ 103.869486469405388, 1.348995044117796 ] } },
{ "type": "Feature", "properties": { "POI_TYPE": "Secondary", "POI_NAME": "Anglican High School", "POI_ADD": "600 Upper Changi Road", "POSTCODE": "487012", "REMARK": null, "XI": 40039.07, "YI": 34685.985 }, "geometry": { "type": "Point", "coordinates": [ 103.941496267367256, 1.329959863765587 ] } },
{ "type": "Feature", "properties": { "POI_TYPE": "Secondary", "POI_NAME": "Anglo-Chinese School (Barker Road)", "POI_ADD": "60 Barker Road", "POSTCODE": "309919", "REMARK": null, "XI": 28298.125, "YI": 33547.087 }, "geometry": { "type": "Point", "coordinates": [ 103.835997387308836, 1.319662456685908 ] } },
{ "type": "Feature", "properties": { "POI_TYPE": "Secondary", "POI_NAME": "Assumption English School", "POI_ADD": "622 Upper Bukit Timah Road", "POSTCODE": "678117", "REMARK": null, "XI": 20580.631, "YI": 39079.742 }, "geometry": { "type": "Point", "coordinates": [ 103.766650346707991, 1.369696890957322 ] } },
{ "type": "Feature", "properties": { "POI_TYPE": "Secondary", "POI_NAME": "Catholic High School", "POI_ADD": "9 Bishan Street 22", "POSTCODE": "579767", "REMARK": null, "XI": 29175.269, "YI": 37504.362 }, "geometry": { "type": "Point", "coordinates": [ 103.843879135126571, 1.355450626413093 ] } },
{ "type": "Feature", "properties": { "POI_TYPE": "Secondary", "POI_NAME": "Chij Katong Convent", "POI_ADD": "346 Marine Terrace", "POSTCODE": "449150", "REMARK": null, "XI": 37323.475, "YI": 32018.457 }, "geometry": { "type": "Point", "coordinates": [ 103.917094361691767, 1.305836663535074 ] } },
{ "type": "Feature", "properties": { "POI_TYPE": "Secondary", "POI_NAME": "Chij Secondary (Toa Payoh)", "POI_ADD": "626 Lorong 1 Toa Payoh", "POSTCODE": "319764", "REMARK": null, "XI": 28997.759, "YI": 34911.38 }, "geometry": { "type": "Point", "coordinates": [ 103.842284007002519, 1.332000624903921 ] } },
{ "type": "Feature", "properties": { "POI_TYPE": "Secondary", "POI_NAME": "Chij St. Joseph'S Convent", "POI_ADD": "62 Sengkang East Way", "POSTCODE": "548595", "REMARK": null, "XI": 35697.146, "YI": 41518.463 }, "geometry": { "type": "Point", "coordinates": [ 103.902483468097756, 1.391751724215025 ] } },
{ "type": "Feature", "properties": { "POI_TYPE": "Secondary", "POI_NAME": "Chij St. Nicholas Girls' School", "POI_ADD": "501 Ang Mo Kio Street 13", "POSTCODE": "569405", "REMARK": null, "XI": 28079.401, "YI": 39434.418 }, "geometry": { "type": "Point", "coordinates": [ 103.834032053553287, 1.372905387427044 ] } },
{ "type": "Feature", "properties": { "POI_TYPE": "Secondary", "POI_NAME": "Chij St. Theresa'S Convent", "POI_ADD": "160 Lower Delta Road", "POSTCODE": "099138", "REMARK": null, "XI": 26650.012, "YI": 28648.392 }, "geometry": { "type": "Point", "coordinates": [ 103.821188446071815, 1.275360355057765 ] } },
{ "type": "Feature", "properties": { "POI_TYPE": "Secondary", "POI_NAME": "Christ Church Secondary School", "POI_ADD": "20 Woodlands Drive 17", "POSTCODE": "737924", "REMARK": null, "XI": 23447.321, "YI": 45335.431 }, "geometry": { "type": "Point", "coordinates": [ 103.792408580810701, 1.42627166206988 ] } },
{ "type": "Feature", "properties": { "POI_TYPE": "Secondary", "POI_NAME": "Chung Cheng High School (Main)", "POI_ADD": "50 Goodman Road", "POSTCODE": "439012", "REMARK": null, "XI": 34389.232, "YI": 31967.639 }, "geometry": { "type": "Point", "coordinates": [ 103.890728816796994, 1.305377828614355 ] } },
{ "type": "Feature", "properties": { "POI_TYPE": "Secondary", "POI_NAME": "Fairfield Methodist Secondary School", "POI_ADD": "102 Dover Road", "POSTCODE": "139649", "REMARK": null, "XI": 22514.782, "YI": 31556.583 }, "geometry": { "type": "Point", "coordinates": [ 103.784031400291354, 1.301660557109226 ] } },
{ "type": "Feature", "properties": { "POI_TYPE": "Secondary", "POI_NAME": "Geylang Methodist School (Secondary)", "POI_ADD": "3 Geylang Bahru Lane", "POSTCODE": "339626", "REMARK": null, "XI": 32196.217, "YI": 34121.173 }, "geometry": { "type": "Point", "coordinates": [ 103.871023847165432, 1.324854000435227 ] } },
{ "type": "Feature", "properties": { "POI_TYPE": "Secondary", "POI_NAME": "Hai Sing Catholic School", "POI_ADD": "9 Pasir Ris Drive 6", "POSTCODE": "519421", "REMARK": null, "XI": 41583.808, "YI": 39628.21 }, "geometry": { "type": "Point", "coordinates": [ 103.95537880332904, 1.37465483468931 ] } },
{ "type": "Feature", "properties": { "POI_TYPE": "Secondary", "POI_NAME": "Holy Innocents' High School", "POI_ADD": "1191 Upper Serangoon Road", "POSTCODE": "534786", "REMARK": null, "XI": 34864.164, "YI": 39341.156 }, "geometry": { "type": "Point", "coordinates": [ 103.894997967256728, 1.372061159639815 ] } },
{ "type": "Feature", "properties": { "POI_TYPE": "Secondary", "POI_NAME": "Kuo Chuan Presbyterian Secondary School", "POI_ADD": "10 Bishan Street 13", "POSTCODE": "579795", "REMARK": null, "XI": 30420.238, "YI": 36933.027 }, "geometry": { "type": "Point", "coordinates": [ 103.855065944806498, 1.350283601336235 ] } },
{ "type": "Feature", "properties": { "POI_TYPE": "Secondary", "POI_NAME": "Manjusri Secondary School", "POI_ADD": "149 Sims Drive", "POSTCODE": "387380", "REMARK": null, "XI": 32800.864, "YI": 33164.002 }, "geometry": { "type": "Point", "coordinates": [ 103.876456775724222, 1.316197597537634 ] } },
{ "type": "Feature", "properties": { "POI_TYPE": "Secondary", "POI_NAME": "Maris Stella High School", "POI_ADD": "25 Mount Vernon Road", "POSTCODE": "368051", "REMARK": null, "XI": 32949.243, "YI": 35993.093 }, "geometry": { "type": "Point", "coordinates": [ 103.877790493463422, 1.341782863502119 ] } },
{ "type": "Feature", "properties": { "POI_TYPE": "Secondary", "POI_NAME": "Montfort Secondary School", "POI_ADD": "50 Hougang Avenue 8", "POSTCODE": "538785", "REMARK": null, "XI": 34267.075, "YI": 39719.287 }, "geometry": { "type": "Point", "coordinates": [ 103.889632780405776, 1.375480972690914 ] } },
{ "type": "Feature", "properties": { "POI_TYPE": "Secondary", "POI_NAME": "Nan Chiau High School", "POI_ADD": "20 Anchorvale Link", "POSTCODE": "545079", "REMARK": null, "XI": 34201.759, "YI": 41212.198 }, "geometry": { "type": "Point", "coordinates": [ 103.88904618374815, 1.388982332639716 ] } },
{ "type": "Feature", "properties": { "POI_TYPE": "Secondary", "POI_NAME": "Ngee Ann Secondary School", "POI_ADD": "1 Tampines Street 32", "POSTCODE": "529283", "REMARK": null, "XI": 41819.846, "YI": 37334.038 }, "geometry": { "type": "Point", "coordinates": [ 103.957498706517484, 1.35390710049058 ] } },
{ "type": "Feature", "properties": { "POI_TYPE": "Secondary", "POI_NAME": "Paya Lebar Methodist Girls' School (Secondary)", "POI_ADD": "296 Lor Ah Soo", "POSTCODE": "536742", "REMARK": null, "XI": 33756.025, "YI": 36997.301 }, "geometry": { "type": "Point", "coordinates": [ 103.885040102731978, 1.350864416696757 ] } },
{ "type": "Feature", "properties": { "POI_TYPE": "Secondary", "POI_NAME": "Presbyterian High School", "POI_ADD": "5209 Ang Mo Kio Avenue 6", "POSTCODE": "569845", "REMARK": null, "XI": 29029.126, "YI": 40416.03 }, "geometry": { "type": "Point", "coordinates": [ 103.842566045945304, 1.38178271728257 ] } },
{ "type": "Feature", "properties": { "POI_TYPE": "Secondary", "POI_NAME": "St. Anthony'S Canossian Secondary School", "POI_ADD": "1600 Bedok North Avenue 4", "POSTCODE": "469700", "REMARK": null, "XI": 40149.428, "YI": 35178.182 }, "geometry": { "type": "Point", "coordinates": [ 103.94248808958838, 1.334411066978153 ] } },
{ "type": "Feature", "properties": { "POI_TYPE": "Secondary", "POI_NAME": "St. Gabriel'S Secondary School", "POI_ADD": "24 Serangoon Avenue 1", "POSTCODE": "556140", "REMARK": null, "XI": 32654.626, "YI": 36537.515 }, "geometry": { "type": "Point", "coordinates": [ 103.875143267384232, 1.346706468336829 ] } },
{ "type": "Feature", "properties": { "POI_TYPE": "Secondary", "POI_NAME": "St. Hilda'S Secondary School", "POI_ADD": "2 Tampines Street 82", "POSTCODE": "528986", "REMARK": null, "XI": 39425.345, "YI": 36887.943 }, "geometry": { "type": "Point", "coordinates": [ 103.935982444529955, 1.349873795290252 ] } },
{ "type": "Feature", "properties": { "POI_TYPE": "Secondary", "POI_NAME": "St. Margaret'S Secondary School", "POI_ADD": "111 Farrer Road", "POSTCODE": "259240", "REMARK": null, "XI": 25383.86, "YI": 33640.251 }, "geometry": { "type": "Point", "coordinates": [ 103.809811193120382, 1.320504888420556 ] } },
{ "type": "Feature", "properties": { "POI_TYPE": "Secondary", "POI_NAME": "St. Patrick'S School", "POI_ADD": "490 East Coast Road", "POSTCODE": "429058", "REMARK": null, "XI": 37342.946, "YI": 32393.789 }, "geometry": { "type": "Point", "coordinates": [ 103.917269430344632, 1.309231024293226 ] } },
{ "type": "Feature", "properties": { "POI_TYPE": "Secondary", "POI_NAME": "Yuying Secondary School", "POI_ADD": "47 Hougang Avenue 1", "POSTCODE": "538884", "REMARK": null, "XI": 34327.151, "YI": 37690.175 }, "geometry": { "type": "Point", "coordinates": [ 103.890172175252744, 1.357130404089553 ] } },
{ "type": "Feature", "properties": { "POI_TYPE": "Secondary", "POI_NAME": "Anglo-Chinese School (Independent)", "POI_ADD": "121 Dover Road", "POSTCODE": "139650", "REMARK": null, "XI": 22061.268, "YI": 31600.581 }, "geometry": { "type": "Point", "coordinates": [ 103.779956363474724, 1.302058375871949 ] } },
{ "type": "Feature", "properties": { "POI_TYPE": "Secondary", "POI_NAME": "Hwa Chong Institution", "POI_ADD": "661 Bukit Timah Road", "POSTCODE": "269734", "REMARK": null, "XI": 25121.245, "YI": 34172.383 }, "geometry": { "type": "Point", "coordinates": [ 103.807451410301624, 1.325317277957524 ] } },
{ "type": "Feature", "properties": { "POI_TYPE": "Secondary", "POI_NAME": "Methodist Girls' School (Secondary)", "POI_ADD": "11 Blackmore Drive", "POSTCODE": "599986", "REMARK": null, "XI": 22510.092, "YI": 34895.112 }, "geometry": { "type": "Point", "coordinates": [ 103.783988664831412, 1.331853022158823 ] } },
{ "type": "Feature", "properties": { "POI_TYPE": "Secondary", "POI_NAME": "Nanyang Girls' High School", "POI_ADD": "2 Linden Drive", "POSTCODE": "288683", "REMARK": null, "XI": 24500.527, "YI": 34830.879 }, "geometry": { "type": "Point", "coordinates": [ 103.801873848963936, 1.331272416781441 ] } },
{ "type": "Feature", "properties": { "POI_TYPE": "Secondary", "POI_NAME": "Northlight School", "POI_ADD": "2 Dunman Road", "POSTCODE": "439188", "REMARK": null, "XI": 34320.978, "YI": 32283.202 }, "geometry": { "type": "Point", "coordinates": [ 103.890115586976265, 1.308231681762481 ] } },
{ "type": "Feature", "properties": { "POI_TYPE": "Secondary", "POI_NAME": "Raffles Girls' School (Secondary)", "POI_ADD": "20 Anderson Road", "POSTCODE": "259978", "REMARK": null, "XI": 27511.731, "YI": 32664.471 }, "geometry": { "type": "Point", "coordinates": [ 103.828931242156457, 1.311680386778313 ] } },
{ "type": "Feature", "properties": { "POI_TYPE": "Secondary", "POI_NAME": "Raffles Institution", "POI_ADD": "1 Raffles Institution Lane", "POSTCODE": "575954", "REMARK": null, "XI": 29389.851, "YI": 36677.494 }, "geometry": { "type": "Point", "coordinates": [ 103.845807255750699, 1.34797271734803 ] } },
{ "type": "Feature", "properties": { "POI_TYPE": "Secondary", "POI_NAME": "Singapore Chinese Girls' School", "POI_ADD": "190 Dunearn Road", "POSTCODE": "309437", "REMARK": null, "XI": 27465.727, "YI": 33607.172 }, "geometry": { "type": "Point", "coordinates": [ 103.82851785725201, 1.320205840933961 ] } },
{ "type": "Feature", "properties": { "POI_TYPE": "Secondary", "POI_NAME": "St. Joseph'S Institution", "POI_ADD": "38 Malcolm Road", "POSTCODE": "308274", "REMARK": null, "XI": 27496.372, "YI": 34050.365 }, "geometry": { "type": "Point", "coordinates": [ 103.828793211294965, 1.324213922229201 ] } },
{ "type": "Feature", "properties": { "POI_TYPE": "JC", "POI_NAME": "Anderson Junior College", "POI_ADD": "4500 Ang Mo Kio Avenue 6", "POSTCODE": "569843", "REMARK": null, "XI": 29288.017, "YI": 40180.595 }, "geometry": { "type": "Point", "coordinates": [ 103.84489236499725, 1.37965351721743 ] } },
{ "type": "Feature", "properties": { "POI_TYPE": "JC", "POI_NAME": "Dunman High School", "POI_ADD": "53 Mount Sinai Road", "POSTCODE": "276880", "REMARK": null, "XI": 22746.432, "YI": 32912.003 }, "geometry": { "type": "Point", "coordinates": [ 103.78611265134515, 1.313918533651821 ] } },
{ "type": "Feature", "properties": { "POI_TYPE": "JC", "POI_NAME": "Jurong Junior College", "POI_ADD": "800 Corporation Road", "POSTCODE": "649809", "REMARK": null, "XI": 14684.661, "YI": 36885.576 }, "geometry": { "type": "Point", "coordinates": [ 103.713671960210135, 1.349851606511554 ] } },
{ "type": "Feature", "properties": { "POI_TYPE": "JC", "POI_NAME": "Meridian Junior College", "POI_ADD": "21 Pasir Ris Street 71", "POSTCODE": "518799", "REMARK": null, "XI": 39694.882, "YI": 39719.73 }, "geometry": { "type": "Point", "coordinates": [ 103.938405509926028, 1.375483319690009 ] } },
{ "type": "Feature", "properties": { "POI_TYPE": "JC", "POI_NAME": "National Junior College", "POI_ADD": "37 Hillcrest Road", "POSTCODE": "288913", "REMARK": null, "XI": 24827.855, "YI": 34794.969 }, "geometry": { "type": "Point", "coordinates": [ 103.804815078332666, 1.330947695499803 ] } },
{ "type": "Feature", "properties": { "POI_TYPE": "JC", "POI_NAME": "Pioneer Junior College", "POI_ADD": "21 Teck Whye Walk", "POSTCODE": "688258", "REMARK": null, "XI": 19135.483, "YI": 40785.054 }, "geometry": { "type": "Point", "coordinates": [ 103.753664174314906, 1.385118708690098 ] } },
{ "type": "Feature", "properties": { "POI_TYPE": "JC", "POI_NAME": "River Valley High School", "POI_ADD": "2 Malan Road", "POSTCODE": "109433", "REMARK": null, "XI": 24714.23, "YI": 28739.654 }, "geometry": { "type": "Point", "coordinates": [ 103.803794732263356, 1.276185554773277 ] } },
{ "type": "Feature", "properties": { "POI_TYPE": "JC", "POI_NAME": "Serangoon Junior College", "POI_ADD": "1033 Upper Serangoon Road", "POSTCODE": "534768", "REMARK": null, "XI": 34021.611, "YI": 38520.777 }, "geometry": { "type": "Point", "coordinates": [ 103.88742686639911, 1.364642132491251 ] } },
{ "type": "Feature", "properties": { "POI_TYPE": "JC", "POI_NAME": "Tampines Junior College", "POI_ADD": "2 Tampines Avenue 9", "POSTCODE": "529564", "REMARK": null, "XI": 41640.726, "YI": 37739.798 }, "geometry": { "type": "Point", "coordinates": [ 103.95588938612282, 1.357576723409575 ] } },
{ "type": "Feature", "properties": { "POI_TYPE": "JC", "POI_NAME": "Temasek Junior College", "POI_ADD": "22 Bedok South Road", "POSTCODE": "469278", "REMARK": null, "XI": 39445.45, "YI": 33481.365 }, "geometry": { "type": "Point", "coordinates": [ 103.936161820931218, 1.319065953710266 ] } },
{ "type": "Feature", "properties": { "POI_TYPE": "JC", "POI_NAME": "Victoria Junior College", "POI_ADD": "20 Marine Vista", "POSTCODE": "449035", "REMARK": null, "XI": 37499.57, "YI": 32177.63 }, "geometry": { "type": "Point", "coordinates": [ 103.918676705016736, 1.307276112882106 ] } },
{ "type": "Feature", "properties": { "POI_TYPE": "JC", "POI_NAME": "Yishun Junior College", "POI_ADD": "3 Yishun Ring Road", "POSTCODE": "768675", "REMARK": null, "XI": 27597.577, "YI": 45127.04 }, "geometry": { "type": "Point", "coordinates": [ 103.829702441244223, 1.424387412433659 ] } },
{ "type": "Feature", "properties": { "POI_TYPE": "JC", "POI_NAME": "Anglo-Chinese Junior College", "POI_ADD": "25 Dover Close East", "POSTCODE": "139745", "REMARK": null, "XI": 22569.855, "YI": 31731.911 }, "geometry": { "type": "Point", "coordinates": [ 103.784526225623779, 1.303246170907232 ] } },
{ "type": "Feature", "properties": { "POI_TYPE": "JC", "POI_NAME": "Catholic Junior College", "POI_ADD": "129 Whitley Road", "POSTCODE": "297822", "REMARK": null, "XI": 28216.413, "YI": 34059.781 }, "geometry": { "type": "Point", "coordinates": [ 103.835263166065161, 1.324299080630351 ] } },
{ "type": "Feature", "properties": { "POI_TYPE": "JC", "POI_NAME": "Nanyang Junior College", "POI_ADD": "128 Serangoon Avenue 3", "POSTCODE": "556111", "REMARK": null, "XI": 31756.879, "YI": 37025.945 }, "geometry": { "type": "Point", "coordinates": [ 103.867076518207128, 1.351123780629431 ] } },
{ "type": "Feature", "properties": { "POI_TYPE": "JC", "POI_NAME": "St. Andrew'S Junior College", "POI_ADD": "55 Potong Pasir Ave 1", "POSTCODE": "358389", "REMARK": null, "XI": 31384.536, "YI": 35234.658 }, "geometry": { "type": "Point", "coordinates": [ 103.863730580513106, 1.334924063856373 ] } },
{ "type": "Feature", "properties": { "POI_TYPE": "JC", "POI_NAME": "Anglo-Chinese School (Independent)", "POI_ADD": "121 Dover Road", "POSTCODE": "139650", "REMARK": null, "XI": 22061.268, "YI": 31600.581 }, "geometry": { "type": "Point", "coordinates": [ 103.779956363474724, 1.302058375871949 ] } },
{ "type": "Feature", "properties": { "POI_TYPE": "JC", "POI_NAME": "Hwa Chong Institution", "POI_ADD": "661 Bukit Timah Road", "POSTCODE": "269734", "REMARK": null, "XI": 25121.245, "YI": 34172.383 }, "geometry": { "type": "Point", "coordinates": [ 103.807451410301624, 1.325317277957524 ] } }
]
}
